Title,Place Name,Latitude,Longitude,Location,Dusun,Kecamatan,Kota/Kabupaten,Province,Provinsi,Phone Number,URL,Commodity,Bulan Panen,Panen Months 
MANTEGA COFFEE FARM AND CAMP,MANTEGA COFFEE FARM AND CAMP,-3.4998125,119.8174375,"GR28+3X, Tokkonan, Enrekang, Enrekang Regency, South Sulawesi 91711, Indonesia",Tokkonan,Enrekang,Kabupaten Enrekang,South Sulawesi,Sulawesi Selatan,,"https://www.google.com/maps/place/MANTEGA+COFFEE+FARM+AND+CAMP/@-4.8485743,113.7638653,6z/data=!4m7!3m6!1s0x2d94151baf68d10f:0xe4fc51129fc77291!8m2!3d-3.4998125!4d119.8174375!15sChJrb3BpIGZhcm0gc3VsYXdlc2mSAQRmYXJt4AEA!16s%2Fg%2F11s1pz9l60?entry=tts&g_ep=EgoyMDI0MTEwNS4wIPu8ASoASAFQAw%3D%3D",kopi,"December, January, February, June, July","[12,1,2,6,7]"
Kobong Kopi ARABIKA PANGGI,Kobong Kopi ARABIKA PANGGI,1.3156875,124.8537656,"8V83+7GC, Matani Satu, Tomohon Tengah, Tomohon City, North Sulawesi, Indonesia",Matani Satu,Tomohon Tengah,Kota Tomohon,North Sulawesi,Sulawesi Utara,+62 812-4675-3297,"https://www.google.com/maps/place/Kobong+Kopi+ARABIKA+PANGGI/@-4.8485743,113.7638653,6z/data=!4m7!3m6!1s0x32876d729ceb016d:0x25ac312539ae4b71!8m2!3d1.3156866!4d124.8537612!15sChJrb3BpIGZhcm0gc3VsYXdlc2mSAQl0cmVlX2Zhcm3gAQA!16s%2Fg%2F11m21w_kgt?entry=tts&g_ep=EgoyMDI0MTEwNS4wIPu8ASoASAFQAw%3D%3D",kopi,"December, January, February, June, July","[12,1,2,6,7]"
Kebun kopi Papa tety,Kebun kopi Papa tety,-3.0033625,119.3247031,"X8WF+MV4, West Balla, Balla, Mamasa Regency, West Sulawesi 91366, Indonesia",West Balla,Balla,Kabupaten Mamasa,West Sulawesi,Sulawesi Barat,,"https://www.google.com/maps/place/Kebun+kopi+Papa+tety/@-4.8485743,113.7638653,6z/data=!4m7!3m6!1s0x2d93737d36a59fff:0xf80e82cac55037b3!8m2!3d-3.0039485!4d119.3239193!15sChJrb3BpIGZhcm0gc3VsYXdlc2mSAQl0cmVlX2Zhcm3gAQA!16s%2Fg%2F11v41f1t13?entry=tts&g_ep=EgoyMDI0MTEwNS4wIPu8ASoASAFQAw%3D%3D",kopi,"December, January, February, June, July","[12,1,2,6,7]"
Perkebunan Kopi Robusta Liberia,Perkebunan Kopi Robusta Liberia,0.7371125,124.4081406,"PCP5+R7R, East Liberia, Modayag, East Bolaang Mongondow Regency, North Sulawesi, Indonesia",East Liberia,Modayag,Kabupaten Bolaang Mongondow Timur,North Sulawesi,Sulawesi Utara,,"https://www.google.com/maps/place/Perkebunan+Kopi+Robusta+Liberia/@-4.8485743,113.7638653,6z/data=!4m7!3m6!1s0x327e239630d23edb:0x8e795c3e8efc8be1!8m2!3d0.737108!4d124.4081376!15sChJrb3BpIGZhcm0gc3VsYXdlc2mSAQl0cmVlX2Zhcm3gAQA!16s%2Fg%2F11qp05n2l9?entry=tts&g_ep=EgoyMDI0MTEwNS4wIPu8ASoASAFQAw%3D%3D",kopi,"December, January, February, June, July","[12,1,2,6,7]"
Kopi Api Coffee Roasters,Kopi Api Coffee Roasters,-2.5227625,121.3584844,"F9G5+V9X, Nekkel, Nuha, East Luwu Regency, South Sulawesi 92983, Indonesia",Nekkel,Nuha,Kabupaten Luwu Timur,South Sulawesi,Sulawesi Selatan,+62 822-9395-9877,"https://www.google.com/maps/place/Kopi+Api+Coffee+Roasters/@-4.8485743,113.7638653,6z/data=!4m7!3m6!1s0x2d9065e141db1c91:0xe457b195c8a88c3c!8m2!3d-2.5227526!4d121.3584964!15sChJrb3BpIGZhcm0gc3VsYXdlc2laFCISa29waSBmYXJtIHN1bGF3ZXNpkgEEY2FmZeABAA!16s%2Fg%2F11g6jq98tp?entry=tts&g_ep=EgoyMDI0MTEwNS4wIPu8ASoASAFQAw%3D%3D",kopi,"December, January, February, June, July","[12,1,2,6,7]"
Kebun Kopi Toraja - ToRi Coffee,Kebun Kopi Toraja - ToRi Coffee,-3.1533125,119.9136875,"RWW7+MF, Lemo, Mengkendek, Tana Toraja Regency, South Sulawesi, Indonesia",Lemo,Mengkendek,Kabupaten Tana Toraja,South Sulawesi,Sulawesi Selatan,+62 821-9407-8751,"https://www.google.com/maps/place/Kebun+Kopi+Toraja+-+ToRi+Coffee/@-4.726023,113.760057,6z/data=!4m7!3m6!1s0x2d93f10019951bd3:0x4f5d02ff4e92a580!8m2!3d-3.1534895!4d119.9136324!15sChNrZWJ1biBrb3BpIHN1bGF3ZXNpWhUiE2tlYnVuIGtvcGkgc3VsYXdlc2mSAQl0cmVlX2Zhcm2aASNDaFpEU1VoTk1HOW5TMFZKUTBGblNVTlVaemhmWjFaUkVBReABAA!16s%2Fg%2F11vt83v83h?entry=tts&g_ep=EgoyMDI0MTEwNS4wIPu8ASoASAFQAw%3D%3D",kopi,"December, January, February, June, July","[12,1,2,6,7]"
Kopi Koya,Kopi Koya,1.2904375,124.8948594,"7VRV+5WH, Koya, Tondano Selatan, Minahasa Regency, North Sulawesi, Indonesia",Koya,Tondano Selatan,Kabupaten Minahasa,North Sulawesi,Sulawesi Utara,+62 896-0269-4672,"https://www.google.com/maps/place/Kopi+Koya/@-4.8485743,113.7638653,6z/data=!4m7!3m6!1s0x328715126e5ecec9:0x8e7968b89cbc46ad!8m2!3d1.2904311!4d124.8948697!15sChJrb3BpIGZhcm0gc3VsYXdlc2mSAQRmYXJt4AEA!16s%2Fg%2F11qt05stln?entry=tts&g_ep=EgoyMDI0MTEwNS4wIPu8ASoASAFQAw%3D%3D",kopi,"December, January, February, June, July","[12,1,2,6,7]"
Perkebunan Kopi Tolutug,Perkebunan Kopi Tolutug,0.7504375,124.3064844,"Q824+5HH, Gogagoman, Kotamobagu Barat, Kotamobagu City, North Sulawesi, Indonesia",Gogagoman,Kotamobagu Barat,Kota Kotamobagu,North Sulawesi,Sulawesi Utara,,"https://www.google.com/maps/place/Perkebunan+Kopi+Tolutug/@-4.8485743,113.7638653,6z/data=!4m7!3m6!1s0x327e174b4b5b81d1:0x2ee958072b11edd3!8m2!3d0.7504452!4d124.3064963!15sChJrb3BpIGZhcm0gc3VsYXdlc2mSAQRmYXJt4AEA!16s%2Fg%2F11q8wgm6bw?entry=tts&g_ep=EgoyMDI0MTEwNS4wIPu8ASoASAFQAw%3D%3D",kopi,"December, January, February, June, July","[12,1,2,6,7]"
KANDANG KOPI FARM,KANDANG KOPI FARM,-4.1865875,121.8875781,"RV7Q+928, Poli-Polia, East Kolaka Regency, South East Sulawesi 93573, Indonesia",,Poli-Polia,Kabupaten Kolaka Timur,Southeast Sulawesi,Sulawesi Tenggara,+62 822-6119-2114,"https://www.google.com/maps/place/KANDANG+KOPI+FARM/@-4.8485743,113.7638653,6z/data=!4m7!3m6!1s0x2d980f89858e2ffd:0xe2a3e58a05c4adff!8m2!3d-4.1865835!4d121.8875679!15sChJrb3BpIGZhcm0gc3VsYXdlc2mSAQxwb3VsdHJ5X2Zhcm3gAQA!16s%2Fg%2F11ssk4gd0v?entry=tts&g_ep=EgoyMDI0MTEwNS4wIPu8ASoASAFQAw%3D%3D",kopi,"December, January, February, June, July","[12,1,2,6,7]"
Perkebunan Kopi Batui Oishi,Perkebunan Kopi Batui Oishi,-1.3161875,122.5043125,"MGM3+GP, Kayowa, Batui, Banggai Regency, Central Sulawesi, Indonesia",Kayowa,Batui,Kabupaten Banggai,Central Sulawesi,Sulawesi Tengah,,"https://www.google.com/maps/place/Perkebunan+Kopi+Batui+Oishi/@-4.8485743,113.7638653,6z/data=!4m7!3m6!1s0x2d8449c2c888cae3:0xc9f24d8cb2850022!8m2!3d-1.316181!4d122.504355!15sChJrb3BpIGZhcm0gc3VsYXdlc2laFCISa29waSBmYXJtIHN1bGF3ZXNpkgEHb3JjaGFyZJoBJENoZERTVWhOTUc5blMwVkpRMEZuU1VNeE9VeGZSREozUlJBQuABAA!16s%2Fg%2F11trrhjcd7?entry=tts&g_ep=EgoyMDI0MTEwNS4wIPu8ASoASAFQAw%3D%3D",kopi,"December, January, February, June, July","[12,1,2,6,7]"
BUKIT CELEBES COFFE,BUKIT CELEBES COFFE,-5.3596375,119.8673594,"JVR8+4WX, Bontoloe, Bontolempangan, Gowa Regency, South Sulawesi 92176, Indonesia",Bontoloe,Bontolempangan,Kabupaten Gowa,South Sulawesi,Sulawesi Selatan,,"https://www.google.com/maps/place/BUKIT+CELEBES+COFFE/@-4.8485743,113.7638653,6z/data=!4m7!3m6!1s0x2dbeb961fb385177:0xdd1bfcd6ae2b33ba!8m2!3d-5.3596281!4d119.8673683!15sChJrb3BpIGZhcm0gc3VsYXdlc2mSAQl0cmVlX2Zhcm3gAQA!16s%2Fg%2F11h3l3hscf?entry=tts&g_ep=EgoyMDI0MTEwNS4wIPu8ASoASAFQAw%3D%3D",kopi,"December, January, February, June, July","[12,1,2,6,7]"
Kebun Kopi P. Junaidi,Kebun Kopi P. Junaidi,-3.1203999,118.9127763,"VWHC+G7P, Kolehalang, Kec. Ulumanda, Kabupaten Majene, Sulawesi Barat, Indonesia",Kolehalang,Ulumanda,Kabupaten Majene,West Sulawesi,Sulawesi Barat,,"https://www.google.com/maps/place/Kebun+Kopi+P.+Junaidi/@-3.121161,109.6921798,6z/data=!4m7!3m6!1s0x2d93450504199f79:0x9f3672605d9f75a2!8m2!3d-3.121161!4d118.9206954!15sChNrZWJ1biBrb3BpIHN1bGF3ZXNpWhUiE2tlYnVuIGtvcGkgc3VsYXdlc2mSAQRmYXJtmgEjQ2haRFNVaE5NRzluUzBWSlEwRm5TVVI0ZG5KcGNtWkJFQUXgAQA!16s%2Fg%2F11s7rl0bst?entry=tts&g_ep=EgoyMDI0MTEwNS4wIPu8ASoASAFQAw%3D%3D",kopi,"December, January, February, June, July","[12,1,2,6,7]"
Unit Pengolahan Hasil Kopi Arabika Latimojong,Unit Pengolahan Hasil Kopi Arabika Latimojong,-3.4190625,119.9882656,"HXJQ+98C, Latimojong, Buntu Batu, Enrekang Regency, South Sulawesi, Indonesia",,Buntu Batu,Kabupaten Enrekang,South Sulawesi,Sulawesi Selatan,,"https://www.google.com/maps/place/Unit+Pengolahan+Hasil+Kopi+Arabika+Latimojong/@-4.8485743,113.7638653,6z/data=!4m7!3m6!1s0x2d941b0035d05c95:0x5da004fd7592883!8m2!3d-3.4190683!4d119.9882767!15sChJrb3BpIGZhcm0gc3VsYXdlc2mSAQRmYXJt4AEA!16s%2Fg%2F11w9kstm9g?entry=tts&g_ep=EgoyMDI0MTEwNS4wIPu8ASoASAFQAw%3D%3D",kopi,"December, January, February, June, July","[12,1,2,6,7]"
Ghitari Coffee Plantation,Ghitari Coffee Plantation,-3.1072625,119.9184531,"VWV9+39W, Sangala Sel, Kaero, Kec. Sangalla, Kabupaten Tana Toraja, Sulawesi Selatan 91881, Indonesia",Kaero,Sangalla,Kabupaten Tana Toraja,South Sulawesi,Sulawesi Selatan,+62 821-9736-6597,"https://www.google.com/maps/place/Ghitari+Coffee+Plantation/@-4.8485743,113.7638653,6z/data=!4m7!3m6!1s0x2d93f1d707edf15f:0x9230e5127446e1a7!8m2!3d-3.1072519!4d119.9184684!15sChJrb3BpIGZhcm0gc3VsYXdlc2laFCISa29waSBmYXJtIHN1bGF3ZXNpkgEKZHVkZV9yYW5jaJoBI0NoWkRTVWhOTUc5blMwVkpRMEZuU1VOUGFVNTJNVU5CRUFF4AEA!16s%2Fg%2F11dx9h3zzc?entry=tts&g_ep=EgoyMDI0MTEwNS4wIPu8ASoASAFQAw%3D%3D",kopi,"December, January, February, June, July","[12,1,2,6,7]"
Mahitala Coffee Plantation,Mahitala Coffee Plantation,-2.7700538,119.8525909,"Sapan, Buntu Pepasan, North Toraja Regency, South Sulawesi 91847, Indonesia",Sapan,Buntu Pepasan,Kabupaten Toraja Utara,South Sulawesi,Sulawesi Selatan,+62 851-7988-0689,"https://www.google.com/maps/place/Mahitala+Coffee+Plantation/@-4.8073781,113.7625959,6z/data=!4m7!3m6!1s0x2d93c903f31ac5cb:0xc2c72f6c29dcbef!8m2!3d-2.8230749!4d119.8449843!15sChpwbGFudGF0aW9uIGNvZmZlZSBzdWxhd2VzaZIBBGZhcm3gAQA!16s%2Fg%2F11y5qb8qn7?entry=tts&g_ep=EgoyMDI0MTEwNS4wIPu8ASoASAFQAw%3D%3D",kopi,"December, January, February, June, July","[12,1,2,6,7]"
Mobalang Coffee Plantation,Mobalang Coffee Plantation,0.6497375,124.3451719,"J8XW+V3V, Bongkudai, Modayag Barat, East Bolaang Mongondow Regency, North Sulawesi, Indonesia",Bongkudai,Modayag Barat,Kabupaten Bolaang Mongondow Timur,North Sulawesi,Sulawesi Utara,,"https://www.google.com/maps/place/Mobalang+Coffee+Plantation/@-4.8073781,113.7625959,6z/data=!4m7!3m6!1s0x327e25f1b89b0a0f:0x3d14795fee101bb0!8m2!3d0.6497257!4d124.3451684!15sChpwbGFudGF0aW9uIGNvZmZlZSBzdWxhd2VzaVocIhpwbGFudGF0aW9uIGNvZmZlZSBzdWxhd2VzaZIBC2NvZmZlZV9zaG9w4AEA!16s%2Fg%2F11j0ydn7c0?entry=tts&g_ep=EgoyMDI0MTEwNS4wIPu8ASoASAFQAw%3D%3D",kopi,"December, January, February, June, July","[12,1,2,6,7]"
Pabrik Kelapa Sawit PTPN 14 Burau,Pabrik Kelapa Sawit PTPN 14 Burau,-2.6167375,120.6536406,"9MM3+8F2, Unnamed Road, Lagego, Kec. Burau, Kabupaten Luwu Timur, Sulawesi Selatan 92975, Indonesia",Lagego,Burau,Kabupaten Luwu Timur,South Sulawesi,Sulawesi Selatan,+62 853-4253-1112,"https://www.google.com/maps/place/Pabrik+Kelapa+Sawit+PTPN+14+Burau/@-2.6167475,119.5000696,9z/data=!4m7!3m6!1s0x2d91a6f20d0a3303:0xdd9201e7746d2234!8m2!3d-2.6167475!4d120.6536341!15sChVrZWxhcGEgc2F3aXQgc3VsYXdlc2laFyIVa2VsYXBhIHNhd2l0IHN1bGF3ZXNpkgEQY29ycG9yYXRlX29mZmljZZoBJENoZERTVWhOTUc5blMwVkpRMEZuU1VOTU9HRmxiblJSUlJBQuABAA!16s%2Fg%2F11cs38km55?entry=tts&g_ep=EgoyMDI0MTEwNS4wIPu8ASoASAFQAw%3D%3D",kelapa sawit,"March, April, May, June, September, October, November, December","[3,4,5,6,9,10,11,12]"
Pabrik Minyak Kelapa Sawit Toili,Pabrik Minyak Kelapa Sawit Toili,-1.3593625,122.3074844,"J8R4+7X5, Toili, Moilong, Banggai Regency, Central Sulawesi 94762, Indonesia",,Moilong,Kabupaten Banggai,Central Sulawesi,Sulawesi Tengah,,"https://www.google.com/maps/place/Pabrik+Minyak+Kelapa+Sawit+Toili/@-1.3593595,121.1539109,9z/data=!4m7!3m6!1s0x2d85b38b75d627d7:0xd66c53221e506b2a!8m2!3d-1.3593595!4d122.3074754!15sChtrZWJ1biBrZWxhcGEgc2F3aXQgc3VsYXdlc2laHSIba2VidW4ga2VsYXBhIHNhd2l0IHN1bGF3ZXNpkgEQYm90YW5pY2FsX2dhcmRlbpoBJENoZERTVWhOTUc5blMwVkpRMEZuU1VSb1gzWmZkV2RCUlJBQuABAA!16s%2Fg%2F11h1hsl_xk?entry=tts&g_ep=EgoyMDI0MTEwNS4wIPu8ASoASAFQAw%3D%3D",kelapa sawit,"March, April, May, June, September, October, November, December","[3,4,5,6,9,10,11,12]"
Pabrik kelapa Sawit PT.MANAKARRA UNGGUL LESTARI,Pabrik kelapa Sawit PT.MANAKARRA UNGGUL LESTARI,-2.1998625,119.4311406,"RC2J+3F2, Bar., Tommo, Kabupaten Mamuju, Sulawesi, Leling Bar., Kec. Tommo, Kabupaten Mamuju, Sulawesi Barat 91563, Indonesia",Leling Bar.,Tommo,Kabupaten Mamuju,West Sulawesi,Sulawesi Barat,+62 21 6332058,"https://www.google.com/maps/place/Pabrik+kelapa+Sawit+PT.MANAKARRA+UNGGUL+LESTARI/@-2.1998517,118.2775861,9z/data=!4m7!3m6!1s0x2d927e10c7cc0067:0x21bc382123ce4639!8m2!3d-2.1998517!4d119.4311506!15sChVrZWxhcGEgc2F3aXQgc3VsYXdlc2laFyIVa2VsYXBhIHNhd2l0IHN1bGF3ZXNpkgEMbWFudWZhY3R1cmVymgEjQ2haRFNVaE5NRzluUzBWSlEwRm5TVU5vZVhCdVExUm5FQUXgAQA!16s%2Fg%2F11c5fyvstl?entry=tts&g_ep=EgoyMDI0MTEwNS4wIPu8ASoASAFQAw%3D%3D",kelapa sawit,"March, April, May, June, September, October, November, December","[3,4,5,6,9,10,11,12]"
Perkebunan Kelapa Sawit,Perkebunan Kelapa Sawit,-1.4518625,119.4226406,"GCXF+732, Unnamed Road, Lilimori, Kec. Bulu Taba, Kab. Pasangkayu, Sulawesi Barat 91572, Indonesia",Lilimori,Bulu Taba,Kabupaten Pasangkayu,West Sulawesi,Sulawesi Barat,,"https://www.google.com/maps/place/Perkebunan+Kelapa+Sawit/@-2.1998517,118.2775861,9z/data=!4m7!3m6!1s0x2d8c59c6b79a68d5:0x3666c42f78e22af9!8m2!3d-1.4518538!4d119.4226276!15sChVrZWxhcGEgc2F3aXQgc3VsYXdlc2mSAQl0cmVlX2Zhcm3gAQA!16s%2Fg%2F11h1kk87_2?entry=tts&g_ep=EgoyMDI0MTEwNS4wIPu8ASoASAFQAw%3D%3D",kelapa sawit,"March, April, May, June, September, October, November, December","[3,4,5,6,9,10,11,12]"
Kelapa Sawit,Kelapa Sawit,0.1356625,120.1247969,"44PF+7W7, Malanggo, Tinombo Selatan, Parigi Moutong Regency, Central Sulawesi 94475, Indonesia",Malanggo,Tinombo Selatan,Kabupaten Parigi Moutong,Central Sulawesi,Sulawesi Tengah,,"https://www.google.com/maps/place/Kelapa+Sawit/@0.135661,118.971238,9z/data=!4m7!3m6!1s0x3275e2cfd17a220f:0x7d50f319feae8fb1!8m2!3d0.135661!4d120.1248025!15sChVrZWxhcGEgc2F3aXQgc3VsYXdlc2mSAQl0cmVlX2Zhcm3gAQA!16s%2Fg%2F11hd6q7p82?entry=tts&g_ep=EgoyMDI0MTEwNS4wIPu8ASoASAFQAw%3D%3D",kelapa sawit,"March, April, May, June, September, October, November, December","[3,4,5,6,9,10,11,12]"
Pabrik Kelapa Sawit Ganda Makmur (PT Damai Jaya Lestari),Pabrik Kelapa Sawit Ganda Makmur (PT Damai Jaya Lestari),-3.2559875,122.1449219,"P4VV+JX3, Lamonae, Wiwirano, North Konawe Regency, South East Sulawesi 93353, Indonesia",Lamonae,Wiwirano,Kabupaten Konawe Utara,Southeast Sulawesi,Sulawesi Tenggara,,"https://www.google.com/maps/place/Pabrik+Kelapa+Sawit+Ganda+Makmur+(PT+Damai+Jaya+Lestari)/@-2.1998517,118.2775861,9z/data=!4m7!3m6!1s0x2d998f3dc0390bd1:0x2bc7d2aca17ab408!8m2!3d-3.2559847!4d122.144925!15sChVrZWxhcGEgc2F3aXQgc3VsYXdlc2laFyIVa2VsYXBhIHNhd2l0IHN1bGF3ZXNpkgEQY29ycG9yYXRlX29mZmljZZoBJENoZERTVWhOTUc5blMwVkpRMEZuU1VOS2VVNDNUbXgzUlJBQuABAA!16s%2Fg%2F11g6py8qzf?entry=tts&g_ep=EgoyMDI0MTEwNS4wIPu8ASoASAFQAw%3D%3D",kelapa sawit,"March, April, May, June, September, October, November, December","[3,4,5,6,9,10,11,12]"
PT. SURYA SAWIT SEJAHTERA,PT. SURYA SAWIT SEJAHTERA,-2.6121411,120.5706189,"Jl. Trans Sulawesi, Patila, Kec. Bone-Bone, Kabupaten Luwu Utara, Sulawesi Selatan 91966, Indonesia",,Bone-Bone,Kabupaten Luwu Utara,South Sulawesi,Sulawesi Selatan,+62 823-3834-2300,"https://www.google.com/maps/place/PT.+SURYA+SAWIT+SEJAHTERA/@-3.2559847,120.9913605,9z/data=!4m7!3m6!1s0x2d91a37305dca715:0x3e79dfe8b30fae20!8m2!3d-2.5978112!4d120.5671005!15sChVrZWxhcGEgc2F3aXQgc3VsYXdlc2laFyIVa2VsYXBhIHNhd2l0IHN1bGF3ZXNpkgEQY29ycG9yYXRlX29mZmljZZoBJENoZERTVWhOTUc5blMwVkpRMEZuU1VOUExVdFRhbWxSUlJBQuABAA!16s%2Fg%2F11h54frcp2?entry=tts&g_ep=EgoyMDI0MTEwNS4wIPu8ASoASAFQAw%3D%3D",kelapa sawit,"March, April, May, June, September, October, November, December","[3,4,5,6,9,10,11,12]"
Pabrik Kelapa Sawit PT. Sinergi Perkebunan Nusantara,Pabrik Kelapa Sawit PT. Sinergi Perkebunan Nusantara,-2.0839139,120.9991032,"Londi, Mori Atas, North Morowali Regency, Central Sulawesi 94965, Indonesia",Londi,Mori Atas,Kabupaten Morowali Utara,Central Sulawesi,Sulawesi Tengah,,"https://www.google.com/maps/place/Pabrik+Kelapa+Sawit+PT.+Sinergi+Perkebunan+Nusantara/@0.135661,118.971238,9z/data=!4m7!3m6!1s0x2d8fd1c010579b0d:0xbde11b41d8a8b939!8m2!3d-1.9899072!4d121.011355!15sChVrZWxhcGEgc2F3aXQgc3VsYXdlc2laFyIVa2VsYXBhIHNhd2l0IHN1bGF3ZXNpkgEQY29ycG9yYXRlX29mZmljZZoBJENoZERTVWhOTUc5blMwVkpRMEZuU1VNMU9HOUhPVzVuUlJBQuABAA!16s%2Fg%2F11c538zdq6?entry=tts&g_ep=EgoyMDI0MTEwNS4wIPu8ASoASAFQAw%3D%3D",kelapa sawit,"March, April, May, June, September, October, November, December","[3,4,5,6,9,10,11,12]"
PKS PT. Awana Sawit Lestari,PKS PT. Awana Sawit Lestari,-1.6827571,119.3418086,"Sarudu, Pasangkayu, West Sulawesi 91573, Indonesia",,Sarudu,Kabupaten Pasangkayu,West Sulawesi,Sulawesi Barat,,"https://www.google.com/maps/place/PKS+PT.+Awana+Sawit+Lestari/@-1.705089,118.1557362,9z/data=!4m7!3m6!1s0x2d8d05a6d8a1c749:0xa888e1218ad288aa!8m2!3d-1.705089!4d119.3093007!15sChVrZWxhcGEgc2F3aXQgc3VsYXdlc2laFyIVa2VsYXBhIHNhd2l0IHN1bGF3ZXNpkgEMbWFudWZhY3R1cmVymgEkQ2hkRFNVaE5NRzluUzBWSlEwRm5TVU41YW05eGFqaDNSUkFC4AEA!16s%2Fg%2F11gl1_y818?entry=tts&g_ep=EgoyMDI0MTEwNS4wIPu8ASoASAFQAw%3D%3D",kelapa sawit,"March, April, May, June, September, October, November, December","[3,4,5,6,9,10,11,12]"
Kebun Kelapa Sawit Papa Yandhi,Kebun Kelapa Sawit Papa Yandhi,-2.0498125,121.2773125,"X72G+3W, Sampalowo, Petasia Barat, North Morowali Regency, Central Sulawesi, Indonesia",Sampalowo,Petasia Barat,Kabupaten Morowali Utara,Central Sulawesi,Sulawesi Tengah,,"https://www.google.com/maps/place/Kebun+Kelapa+Sawit+Papa+Yandhi/@-1.4409209,118.3217987,9z/data=!4m7!3m6!1s0x2d8fe10047081a71:0x8f8cc763308ca5dd!8m2!3d-2.0498535!4d121.277348!15sChtrZWJ1biBrZWxhcGEgc2F3aXQgc3VsYXdlc2mSAQl0cmVlX2Zhcm3gAQA!16s%2Fg%2F11vzsl0ym8?entry=tts&g_ep=EgoyMDI0MTEwNS4wIPu8ASoASAFQAw%3D%3D",kelapa sawit,"March, April, May, June, September, October, November, December","[3,4,5,6,9,10,11,12]"
Kebun kelapa Sawit Kadek widiyana,Kebun kelapa Sawit Kadek widiyana,-1.4214085,119.4585565,"Kasta Buana, Bulu Taba, Pasangkayu, West Sulawesi 91572, Indonesia",Kasta Buana,Bulu Taba,Kabupaten Pasangkayu,West Sulawesi,Sulawesi Barat,,"https://www.google.com/maps/place/Kebun+kelapa+Sawit+Kadek+widiyana/@-1.3122413,121.2027815,9z/data=!4m7!3m6!1s0x2d8c59c2b82bb17f:0xa03df16112f6d940!8m2!3d-1.4409209!4d119.4753632!15sChtrZWJ1biBrZWxhcGEgc2F3aXQgc3VsYXdlc2mSAQdvcmNoYXJk4AEA!16s%2Fg%2F11wmsdmqh9?entry=tts&g_ep=EgoyMDI0MTEwNS4wIPu8ASoASAFQAw%3D%3D",kelapa sawit,"March, April, May, June, September, October, November, December","[3,4,5,6,9,10,11,12]"
Kebun Kelapa Sawit Fadil,Kebun Kelapa Sawit Fadil,-0.8509125,119.6325781,"4JXM+J2P, Lalombi, Banawa Selatan, Donggala Regency, Central Sulawesi 94351, Indonesia",Lalombi,Banawa Selatan,Kabupaten Donggala,Central Sulawesi,Sulawesi Tengah,,"https://www.google.com/maps/place/Kebun+Kelapa+Sawit+Fadil/@-1.2159569,118.2903481,9z/data=!4m7!3m6!1s0x2d8b97c6be2beadd:0x66cfbc8574f19579!8m2!3d-0.8509164!4d119.6325634!15sChtrZWJ1biBrZWxhcGEgc2F3aXQgc3VsYXdlc2mSAQZnYXJkZW7gAQA!16s%2Fg%2F11st92g0c2?entry=tts&g_ep=EgoyMDI0MTEwNS4wIPu8ASoASAFQAw%3D%3D",kelapa sawit,"March, April, May, June, September, October, November, December","[3,4,5,6,9,10,11,12]"
Jual bibit kelapa sawit & cacao,Jual bibit kelapa sawit %26 cacao,-2.520493,120.7637298,"Sumber Alam, Tomoni, East Luwu Regency, South Sulawesi 92972, Indonesia",Sumber Alam,Tomoni,Kabupaten Luwu Timur,South Sulawesi,Sulawesi Selatan,+62 852-8151-6432,"https://www.google.com/maps/place/Jual+bibit+kelapa+sawit+%26+cacao/@-2.5141395,119.6226604,9z/data=!4m7!3m6!1s0x2d91b180d1415d61:0x2b487b9ec67b168b!8m2!3d-2.5141395!4d120.7762249!15sChtrZWJ1biBrZWxhcGEgc2F3aXQgc3VsYXdlc2mSAQl0cmVlX2Zhcm3gAQA!16s%2Fg%2F11l1yx5xbw?entry=tts&g_ep=EgoyMDI0MTEwNS4wIPu8ASoASAFQAw%3D%3D",kelapa sawit,"March, April, May, June, September, October, November, December","[3,4,5,6,9,10,11,12]"
Kebun cengkeh pak saleh,Kebun cengkeh pak saleh,-5.4589625,120.1326406,"G4RM+C36, Unnamed Road, Mattirowalie, Kec. Kindang, Kabupaten Bulukumba, Sulawesi Selatan 92517, Indonesia",Mattirowalie,Kindang,Kabupaten Bulukumba,South Sulawesi,Sulawesi Selatan,,"https://www.google.com/maps/place/Kebun+cengkeh+pak+saleh/@-3.0681989,109.6896378,6z/data=!4m7!3m6!1s0x2dbea9e366d55485:0xadaf4603591bca17!8m2!3d-5.4589716!4d120.1326358!15sChVjZW5na2VoIGZhcm0gc3VsYXdlc2mSAQl0cmVlX2Zhcm3gAQA!16s%2Fg%2F11h7v00gx4?entry=tts&g_ep=EgoyMDI0MTEwNS4wIPu8ASoASAFQAw%3D%3D",cengkeh,"August, September","[8,9]"
Cengkeh Sadirman M,Cengkeh Sadirman M,-3.3661125,120.3018906,"J8M2+HQ2, Rumaju, Bajo, Luwu Regency, South Sulawesi 91995, Indonesia",,Bajo,Kabupaten Luwu,South Sulawesi,Sulawesi Selatan,+62 852-4150-3397,"https://www.google.com/maps/place/Cengkeh+Sadirman+M/@-3.0681989,109.6896378,6z/data=!4m7!3m6!1s0x2d96af2e5e552007:0xc96e0e3080d5ac40!8m2!3d-3.3661014!4d120.3018896!15sChVjZW5na2VoIGZhcm0gc3VsYXdlc2mSAQl0cmVlX2Zhcm3gAQA!16s%2Fg%2F11fhn20k43?entry=tts&g_ep=EgoyMDI0MTEwNS4wIPu8ASoASAFQAw%3D%3D",cengkeh,"August, September","[8,9]"
Kebun cengkeh bungeja,Kebun cengkeh bungeja,-3.437299,119.4076091,"HC75+32Q, Jl. Biru, Batetangnga, Kec. Binuang, Kabupaten Polewali Mandar, Sulawesi Barat 91312, Indonesia",,Binuang,Kabupaten Polewali Mandar,West Sulawesi,Sulawesi Barat,,"https://www.google.com/maps/place/Kebun+cengkeh+bungeja/@-3.0681989,109.6896378,6z/data=!4m7!3m6!1s0x2d948900186c3b7f:0xbdbb85e8b4748bb0!8m2!3d-3.437299!4d119.4076091!15sChVjZW5na2VoIGZhcm0gc3VsYXdlc2mSAQRmYXJt4AEA!16s%2Fg%2F11w450twyw?entry=tts&g_ep=EgoyMDI0MTEwNS4wIPu8ASoASAFQAw%3D%3D",cengkeh,"August, September","[8,9]"
Kebun cengkeh afika fishing store ll,Kebun cengkeh afika fishing store ll,0.4587943,120.9991032,"GXHX+G6R, Bukit makmur, Kec. Bolano Lambunu, Kabupaten Parigi Moutong, Sulawesi Tengah 94479, Indonesia",Bukit makmur,Bolano Lambunu,Kabupaten Parigi Moutong,Central Sulawesi,Sulawesi Tengah,+62 852-5656-1446,"https://www.google.com/maps/place/Kebun+cengkeh+afika+fishing+store+ll/@-3.0681989,109.6896378,6z/data=!4m7!3m6!1s0x3277078c42641df7:0xf942a3895d340fae!8m2!3d0.5288503!4d120.9980046!15sChVjZW5na2VoIGZhcm0gc3VsYXdlc2mSAQl0cmVlX2Zhcm3gAQA!16s%2Fg%2F11txpq68zk?entry=tts&g_ep=EgoyMDI0MTEwNS4wIPu8ASoASAFQAw%3D%3D",cengkeh,"August, September","[8,9]"
Perkebunan cengkeh duminanga,Perkebunan cengkeh duminanga,0.3541875,123.8536875,"9V33+MF, Duminanga, Bolaang Uki, South Bolaang Mongondow Regency, North Sulawesi, Indonesia",Duminanga,Bolaang Uki,Kabupaten Bolaang Mongondow Selatan,North Sulawesi,Sulawesi Utara,,"https://www.google.com/maps/place/Perkebunan+cengkeh+duminanga/@0.35424,114.6251234,6z/data=!4m7!3m6!1s0x327fa7c8b19245af:0x21a501897874f94b!8m2!3d0.35424!4d123.853639!15sChVjZW5na2VoIGZhcm0gc3VsYXdlc2laFyIVY2VuZ2tlaCBmYXJtIHN1bGF3ZXNpkgEJdHJlZV9mYXJtmgEkQ2hkRFNVaE5NRzluUzBWSlEwRm5TVU10YW1ZemRUTlJSUkFC4AEA!16s%2Fg%2F11sbmwy8z8?entry=tts&g_ep=EgoyMDI0MTEwNS4wIPu8ASoASAFQAw%3D%3D",cengkeh,"August, September","[8,9]"
Penyulingan Daun Cengkeh Bojes,Penyulingan Daun Cengkeh Bojes,-3.5573625,120.3066406,"C8V4+3M2, Binturu, Larompong, Luwu Regency, South Sulawesi 91997, Indonesia",Binturu,Larompong,Kabupaten Luwu,South Sulawesi,Sulawesi Selatan,+62 812-2480-2804,"https://www.google.com/maps/place/Penyulingan+Daun+Cengkeh+Bojes/@0.35424,114.6251234,6z/data=!4m7!3m6!1s0x2d9699087fd2ea79:0xa62a9a7b99002be!8m2!3d-3.5573597!4d120.306645!15sChVjZW5na2VoIGZhcm0gc3VsYXdlc2laFyIVY2VuZ2tlaCBmYXJtIHN1bGF3ZXNpkgEEZmFybZoBI0NoWkRTVWhOTUc5blMwVkpRMEZuU1VReE4yWkhUV1IzRUFF4AEA!16s%2Fg%2F11hzblgv6w?entry=tts&g_ep=EgoyMDI0MTEwNS4wIPu8ASoASAFQAw%3D%3D",cengkeh,"August, September","[8,9]"
Perkebunan cengkeh.Yarwan diman,Perkebunan cengkeh.Yarwan diman,-0.9523125,123.3468594,"28XW+3PH, Unnamed Road, Booy, Kec. Balantak Sel., Kabupaten Banggai, Sulawesi Tengah 94773, Indonesia",Booy,Balantak Selatan,Kabupaten Banggai,Central Sulawesi,Sulawesi Tengah,+62 852-5601-5253,"https://www.google.com/maps/place/Perkebunan+cengkeh.Yarwan+diman/@0.35424,114.6251234,6z/data=!4m7!3m6!1s0x2d8159daadffe0c7:0x7f8654b44ac6367!8m2!3d-0.9523197!4d123.346868!15sChVjZW5na2VoIGZhcm0gc3VsYXdlc2laFyIVY2VuZ2tlaCBmYXJtIHN1bGF3ZXNpkgEJdHJlZV9mYXJtmgEjQ2haRFNVaE5NRzluUzBWSlEwRm5TVVJVZFRsWGVrVjNFQUXgAQA!16s%2Fg%2F11mr0yxh0r?entry=tts&g_ep=EgoyMDI0MTEwNS4wIPu8ASoASAFQAw%3D%3D",cengkeh,"August, September","[8,9]"
Kebun Cengkeh Arsyifa,Kebun Cengkeh Arsyifa,-5.2599375,120.1673281,"P5R8+2WG, Jl. Poros Jatie-Boddi Desa Samaturu, Samaturue, Kec. Tellu Limpoe, Kab. Sinjai, Sulawesi Selatan 92661, Indonesia",Samaturu,Tellu Limpoe,Kabupaten Sinjai,South Sulawesi,Sulawesi Selatan,,"https://www.google.com/maps/place/Kebun+Cengkeh+Arsyifa/@0.35424,114.6251234,6z/data=!4m7!3m6!1s0x2dbc1f74a084b6f5:0x7fc0a4339a22708a!8m2!3d-5.2599306!4d120.1673228!15sChVjZW5na2VoIGZhcm0gc3VsYXdlc2laFyIVY2VuZ2tlaCBmYXJtIHN1bGF3ZXNpkgEHb3JjaGFyZJoBI0NoWkRTVWhOTUc5blMwVkpRMEZuU1VRMk1IVnFXa1pSRUFF4AEA!16s%2Fg%2F11hz_md1kr?entry=tts&g_ep=EgoyMDI0MTEwNS4wIPu8ASoASAFQAw%3D%3D",cengkeh,"August, September","[8,9]"
Kebun Cengkeh Abi Muslim,Kebun Cengkeh Abi Muslim,0.9885625,122.0674375,"X3Q8+CX, Pionoto, Paleleh, Buol Regency, Central Sulawesi, Indonesia",Pionoto,Paleleh,Kabupaten Buol,Central Sulawesi,Sulawesi Tengah,,"https://www.google.com/maps/place/Kebun+Cengkeh+Abi+Muslim/@0.35424,114.6251234,6z/data=!4m7!3m6!1s0x32798b117a31599d:0xad19a2d0967ddf44!8m2!3d0.9885703!4d122.0674369!15sChVjZW5na2VoIGZhcm0gc3VsYXdlc2mSAQl0cmVlX2Zhcm3gAQA!16s%2Fg%2F11t4_mr_n9?entry=tts&g_ep=EgoyMDI0MTEwNS4wIPu8ASoASAFQAw%3D%3D",cengkeh,"August, September","[8,9]"
Kebun cengkeh papa Abil,Kebun cengkeh papa Abil,0.4449375,124.2029375,"C6V3+X5, Mataindo, Pinolosian Tengah, South Bolaang Mongondow Regency, North Sulawesi, Indonesia",Mataindo,Pinolosian Tengah,Kabupaten Bolaang Mongondow Selatan,North Sulawesi,Sulawesi Utara,,"https://www.google.com/maps/place/Kebun+cengkeh+papa+Abil/@0.35424,114.6251234,6z/data=!4m7!3m6!1s0x327fcb38d10b5381:0xf0252b827e19f38a!8m2!3d0.4449787!4d124.2028943!15sChVjZW5na2VoIGZhcm0gc3VsYXdlc2mSAQl0cmVlX2Zhcm3gAQA!16s%2Fg%2F11vkknkxv0?entry=tts&g_ep=EgoyMDI0MTEwNS4wIPu8ASoASAFQAw%3D%3D",cengkeh,"August, September","[8,9]"
Kebun cengkeh Firman,Kebun cengkeh Firman,0.9781125,120.7806719,"XQHJ+67V, Unnamed Road, Lelean Nono, Kec. Baolan, Kabupaten Toli-Toli, Sulawesi Tengah 94516, Indonesia",Lelean Nono,Baolan,Kabupaten Toli-Toli,Central Sulawesi,Sulawesi Tengah,,"https://www.google.com/maps/place/Kebun+cengkeh+Firman/@0.35424,114.6251234,6z/data=!4m7!3m6!1s0x3276d30888949297:0x905a2e8fe917b127!8m2!3d0.9781025!4d120.7806632!15sChVjZW5na2VoIGZhcm0gc3VsYXdlc2mSARBjb3Jwb3JhdGVfb2ZmaWNl4AEA!16s%2Fg%2F11ky5lpqt5?entry=tts&g_ep=EgoyMDI0MTEwNS4wIPu8ASoASAFQAw%3D%3D",cengkeh,"August, September","[8,9]"
Perkebunan cengkeh,Perkebunan cengkeh,0.8589375,124.4598125,"VF55+HW, Tambelang, Maesaan, South Minahasa Regency, North Sulawesi, Indonesia",Tambelang,Maesaan,Kabupaten Minahasa Selatan,North Sulawesi,Sulawesi Utara,,"https://www.google.com/maps/place/Perkebunan+cengkeh/@0.35424,114.6251234,6z/data=!4m7!3m6!1s0x327e1d002b139db5:0xbe4256e3e1294a22!8m2!3d0.8589184!4d124.4598453!15sChVjZW5na2VoIGZhcm0gc3VsYXdlc2mSAQl0cmVlX2Zhcm3gAQA!16s%2Fg%2F11vxx0mjj4?entry=tts&g_ep=EgoyMDI0MTEwNS4wIPu8ASoASAFQAw%3D%3D",cengkeh,"August, September","[8,9]"
Kebun cengkeh yusuf,Kebun cengkeh yusuf,-4.0399375,121.6380625,"XJ6Q+26, Laloeha, Kolaka, Kolaka Regency, South East Sulawesi, Indonesia",,Laloeha,Kabupaten Kolaka,Southeast Sulawesi,Sulawesi Tenggara,,"https://www.google.com/maps/place/Kebun+cengkeh+yusuf/@0.35424,114.6251234,6z/data=!4m7!3m6!1s0x2d981f0060fc92c9:0xd461f31f4b7551f3!8m2!3d-4.0399439!4d121.6381131!15sChVjZW5na2VoIGZhcm0gc3VsYXdlc2mSAQRmYXJt4AEA!16s%2Fg%2F11w23n4whg?entry=tts&g_ep=EgoyMDI0MTEwNS4wIPu8ASoASAFQAw%3D%3D",cengkeh,"August, September","[8,9]"
Kebun Cengkeh Faenal Paisal,Kebun Cengkeh Faenal Paisal,-3.4585391,120.956081,"Ujung Tobaku, Katoi, North Kolaka Regency, South East Sulawesi 93916, Indonesia",Ujung Tobaku,Katoi,Kabupaten Kolaka Utara,Southeast Sulawesi,Sulawesi Tenggara,+62 852-2229-1071,"https://www.google.com/maps/place/Kebun+Cengkeh+Faenal+Paisal/@0.35424,114.6251234,6z/data=!4m7!3m6!1s0x2d96df1dceb752ed:0x4352796bec4a2d0!8m2!3d-3.425983!4d120.8706576!15sChVjZW5na2VoIGZhcm0gc3VsYXdlc2mSAQRmYXJt4AEA!16s%2Fg%2F11s8_m5z6f?entry=tts&g_ep=EgoyMDI0MTEwNS4wIPu8ASoASAFQAw%3D%3D",cengkeh,"August, September","[8,9]"
Kebun Cengkeh,Kebun Cengkeh,-4.1770498,121.7061386,"RP58+26P, Gunung Batu, Puulemo, Kec. Baula, Kabupaten Kolaka, Sulawesi Tenggara, Indonesia","Gunung Batu, Puulemo",Baula,Kabupaten Kolaka,Southeast Sulawesi,Sulawesi Tenggara,,"https://www.google.com/maps/place/Kebun+Cengkeh/@0.35424,114.6251234,6z/data=!4m7!3m6!1s0x2d9803001ac5dfa1:0x8832bbbf9d5d23a2!8m2!3d-4.1924174!4d121.7155723!15sChVjZW5na2VoIGZhcm0gc3VsYXdlc2mSAQdvcmNoYXJk4AEA!16s%2Fg%2F11w4p6zb90?entry=tts&g_ep=EgoyMDI0MTEwNS4wIPu8ASoASAFQAw%3D%3D",cengkeh,"August, September","[8,9]"
Kebun cengkeh dan lahan batu Adrian yunus,Kebun cengkeh dan lahan batu Adrian yunus,-4.1261498,122.8704925,"Cempedak, Laonti, Kendari, South East Sulawesi 93892, Indonesia",Cempedak,Laonti,Kota Kendari,Southeast Sulawesi,Sulawesi Tenggara,+62 821-9520-4866,"https://www.google.com/maps/place/Kebun+cengkeh+dan+lahan+batu+Adrian+yunus/@0.35424,114.6251234,6z/data=!4m7!3m6!1s0x2d98a5deee6a215f:0xfbe7eff3d30847a3!8m2!3d-4.1463914!4d122.8838251!15sChVjZW5na2VoIGZhcm0gc3VsYXdlc2mSAQRmYXJt4AEA!16s%2Fg%2F11y8cpx1k8?entry=tts&g_ep=EgoyMDI0MTEwNS4wIPu8ASoASAFQAw%3D%3D",cengkeh,"August, September","[8,9]"
Kebun Cengkeh Risma Ridwan,Kebun Cengkeh Risma Ridwan,0.955314,120.7292472,"Pulias, Pantai, Toli-Toli Regency, Central Sulawesi 94561, Indonesia",Pulias,Pantai,Kabupaten Toli-Toli,Central Sulawesi,Sulawesi Tengah,,"https://www.google.com/maps/place/Kebun+Cengkeh+Risma+Ridwan/@0.35424,114.6251234,6z/data=!4m7!3m6!1s0x3276d1c95f5b7b3f:0x9a51a434811dacdb!8m2!3d0.9636587!4d120.7298119!15sChVjZW5na2VoIGZhcm0gc3VsYXdlc2mSAQl0cmVlX2Zhcm3gAQA!16s%2Fg%2F11l5gwp139?entry=tts&g_ep=EgoyMDI0MTEwNS4wIPu8ASoASAFQAw%3D%3D",cengkeh,"August, September","[8,9]"
Kebun cengkeh Ros,Kebun cengkeh Ros,-3.4790875,119.9180469,"GWC9+967, Ledan, Buntu Batu, Enrekang Regency, South Sulawesi 91753, Indonesia",Ledan,Buntu Batu,Kabupaten Enrekang,South Sulawesi,Sulawesi Selatan,,"https://www.google.com/maps/place/Kebun+cengkeh+Ros/@0.35424,114.6251234,6z/data=!4m7!3m6!1s0x2d9417d79a97e5ff:0xd121a58dd0416c37!8m2!3d-3.4790934!4d119.9180366!15sChVjZW5na2VoIGZhcm0gc3VsYXdlc2laFyIVY2VuZ2tlaCBmYXJtIHN1bGF3ZXNpkgEHb3JjaGFyZJoBJENoZERTVWhOTUc5blMwVkpRMEZuU1VOS09VOTVPRFpuUlJBQuABAA!16s%2Fg%2F11v0bclf_8?entry=tts&g_ep=EgoyMDI0MTEwNS4wIPu8ASoASAFQAw%3D%3D",cengkeh,"August, September","[8,9]"
Kobong Cengkeh Opa itoy,Kobong Cengkeh Opa itoy,0.7831125,123.8673594,"QVM8+6WX, Babo, Sangtombolang, Bolaang Mongondow Regency, North Sulawesi, Indonesia",,Sangtombolang,Kabupaten Bolaang Mongondow,North Sulawesi,Sulawesi Utara,,"https://www.google.com/maps/place/Kobong+Cengkeh+Opa+itoy/@0.35424,114.6251234,6z/data=!4m7!3m6!1s0x327e610066d5fd25:0x4776f51fe821f5a7!8m2!3d0.7831119!4d123.8673533!15sChVjZW5na2VoIGZhcm0gc3VsYXdlc2mSAQl0cmVlX2Zhcm3gAQA!16s%2Fg%2F11w4sc2qn0?entry=tts&g_ep=EgoyMDI0MTEwNS4wIPu8ASoASAFQAw%3D%3D",cengkeh,"August, September","[8,9]"
Cengkeh Ines,Cengkeh Ines,-0.6403125,119.9567031,"9X54+VMG, Wombo, Tanantovea, Donggala Regency, Central Sulawesi, Indonesia",Wombo,Tanantovea,Kabupaten Donggala,Central Sulawesi,Sulawesi Tengah,,"https://www.google.com/maps/place/Cengkeh+Ines/@0.35424,114.6251234,6z/data=!4m7!3m6!1s0x2d8bcf0078162177:0x46ab8623779408f5!8m2!3d-0.6403018!4d119.9567082!15sChVjZW5na2VoIGZhcm0gc3VsYXdlc2mSAQdvcmNoYXJk4AEA!16s%2Fg%2F11w1z8yr_h?entry=tts&g_ep=EgoyMDI0MTEwNS4wIPu8ASoASAFQAw%3D%3D",cengkeh,"August, September","[8,9]"
Kebun cengkeh,Kebun cengkeh,-0.2503875,119.9749531,"PXXF+RXW, Donggulu, Kasimbar, Parigi Moutong Regency, Central Sulawesi 94474, Indonesia",Donggulu,Kasimbar,Kabupaten Parigi Moutong,Central Sulawesi,Sulawesi Tengah,+62 821-9242-2477,"https://www.google.com/maps/place/Kebun+cengkeh/@0.35424,114.6251234,6z/data=!4m7!3m6!1s0x2d8a198a9f4bf3e5:0x21dbe37800c109d5!8m2!3d-0.2503757!4d119.9749595!15sChVjZW5na2VoIGZhcm0gc3VsYXdlc2laFyIVY2VuZ2tlaCBmYXJtIHN1bGF3ZXNpkgEHb3JjaGFyZJoBJENoZERTVWhOTUc5blMwVkpRMEZuU1VSWUxWQnlhVjlCUlJBQuABAA!16s%2Fg%2F11h71h9808?entry=tts&g_ep=EgoyMDI0MTEwNS4wIPu8ASoASAFQAw%3D%3D",cengkeh,"August, September","[8,9]"
Pembibitan cengkeh,Pembibitan cengkeh,-4.0240125,121.5245156,"XGGF+9RR, Induha, Latambaga, Kolaka Regency, South East Sulawesi, Indonesia",,Latambaga,Kabupaten Kolaka,Southeast Sulawesi,Sulawesi Tenggara,+62 852-5584-5585,"https://www.google.com/maps/place/Pembibitan+cengkeh/@0.35424,114.6251234,6z/data=!4m7!3m6!1s0x2d978d3e6f8091f1:0x61c89330052661ce!8m2!3d-4.0240082!4d121.5245165!15sChVjZW5na2VoIGZhcm0gc3VsYXdlc2laFyIVY2VuZ2tlaCBmYXJtIHN1bGF3ZXNpkgENcGxhbnRfbnVyc2VyeZoBI0NoWkRTVWhOTUc5blMwVkpRMEZuU1VOYU5EWjFNbVozRUFF4AEA!16s%2Fg%2F11vbdtf6zp?entry=tts&g_ep=EgoyMDI0MTEwNS4wIPu8ASoASAFQAw%3D%3D",cengkeh,"August, September","[8,9]"
Kebun Cengkeh Anang - Galang,Kebun Cengkeh Anang - Galang,-0.7831875,119.9620625,"6X86+PR, Bale, Tanantovea, Donggala Regency, Central Sulawesi, Indonesia",Bale,Tanantovea,Kabupaten Donggala,Central Sulawesi,Sulawesi Tengah,,"https://www.google.com/maps/place/Kebun+Cengkeh+Anang+-+Galang/@0.35424,114.6251234,6z/data=!4m7!3m6!1s0x2d8bc30023279897:0x4ae15a56d476e2dc!8m2!3d-0.7831303!4d119.9621235!15sChVjZW5na2VoIGZhcm0gc3VsYXdlc2mSAQl0cmVlX2Zhcm3gAQA!16s%2Fg%2F11y5v6fdwn?entry=tts&g_ep=EgoyMDI0MTEwNS4wIPu8ASoASAFQAw%3D%3D",cengkeh,"August, September","[8,9]"
Kebun cengkeh bapak bustang,Kebun cengkeh bapak bustang,1.1620625,120.8724375,"5V6C+RX, Tinigi, Galang, Toli-Toli Regency, Central Sulawesi, Indonesia",Tinigi,Galang,Kabupaten Toli-Toli,Central Sulawesi,Sulawesi Tengah,,"https://www.google.com/maps/place/Kebun+cengkeh+bapak+bustang/@0.35424,114.6251234,6z/data=!4m7!3m6!1s0x32712900148c0323:0xdbf14dd2e41055f2!8m2!3d1.1620042!4d120.8724554!15sChVjZW5na2VoIGZhcm0gc3VsYXdlc2mSAQl0cmVlX2Zhcm3gAQA!16s%2Fg%2F11y3cl3rmr?entry=tts&g_ep=EgoyMDI0MTEwNS4wIPu8ASoASAFQAw%3D%3D",cengkeh,"August, September","[8,9]"
Penyulingan Daun Cengkeh Sipakalebbi,Penyulingan Daun Cengkeh Sipakalebbi,-3.6230375,120.3723594,"99GC+QWQ, Salusana, Larompong Selatan, Luwu Regency, South Sulawesi 91998, Indonesia",Salusana,Larompong Selatan,Kabupaten Luwu,South Sulawesi,Sulawesi Selatan,+62 823-4690-6643,"https://www.google.com/maps/place/Penyulingan+Daun+Cengkeh+Sipakalebbi/@0.35424,114.6251234,6z/data=!4m7!3m6!1s0x2d9691f30f355265:0x6fb8d6febd332b81!8m2!3d-3.6230485!4d120.3723741!15sChVjZW5na2VoIGZhcm0gc3VsYXdlc2mSAQRmYXJt4AEA!16s%2Fg%2F11h591v70d?entry=tts&g_ep=EgoyMDI0MTEwNS4wIPu8ASoASAFQAw%3D%3D",cengkeh,"August, September","[8,9]"
PERTANIAN CENGKEH,PERTANIAN CENGKEH,-3.9698125,121.4966875,"2FJW+3M, Lawulo, Kolaka Regency, South East Sulawesi, Indonesia",,Lawulo,Kabupaten Kolaka,Southeast Sulawesi,Sulawesi Tenggara,+62 877-1161-7610,"https://www.google.com/maps/place/PERTANIAN+CENGKEH/@0.35424,114.6251234,6z/data=!4m7!3m6!1s0x2d978d3497b2bd51:0x184117d950e7682c!8m2!3d-4.0267469!4d121.4931215!15sChVjZW5na2VoIGZhcm0gc3VsYXdlc2mSAQdvcmNoYXJk4AEA!16s%2Fg%2F11l31y2dqd?entry=tts&g_ep=EgoyMDI0MTEwNS4wIPu8ASoASAFQAw%3D%3D",cengkeh,"August, September","[8,9]"
Tani cengkeh HD,Tani cengkeh HD,-3.5871875,120.3028125,"C873+44, Malewong, Larompong Selatan, Luwu Regency, South Sulawesi 91997, Indonesia",,Larompong Selatan,Kabupaten Luwu,South Sulawesi,Sulawesi Selatan,,"https://www.google.com/maps/place/Tani+cengkeh+HD/@-0.0449525,110.5083985,6z/data=!4m7!3m6!1s0x2d969bd706c6e9e7:0xa0b0981b99064b34!8m2!3d-3.5871547!4d120.3028515!15sChVjZW5na2VoIGZhcm0gc3VsYXdlc2laFyIVY2VuZ2tlaCBmYXJtIHN1bGF3ZXNpkgEGZ2FyZGVumgEkQ2hkRFNVaE5NRzluUzBWSlEwRm5TVU5sTkhBelYzQkJSUkFC4AEA!16s%2Fg%2F11pvhfxr_k?entry=tts&g_ep=EgoyMDI0MTEwNS4wIPu8ASoASAFQAw%3D%3D",cengkeh,"August, September","[8,9]"
"Pembibitan Tanaman Unggul Buriko | Sulawesi Selatan | cengkeh, Merica, Durian, Vanili, Pala","Pembibitan Tanaman Unggul Buriko %7C Sulawesi Selatan %7C cengkeh, Merica, Durian, Vanili, Pala",-3.6705182,120.4031493,"Depan Kantor, JL. Ladongi Buriko, Tellesang, Kec. Pitumpanua, Kabupaten Wajo, Sulawesi Selatan 90992, Indonesia",Tellesang,Pitumpanua,Kabupaten Wajo,South Sulawesi,Sulawesi Selatan,+62 823-2730-0300,"https://www.google.com/maps/place/Pembibitan+Tanaman+Unggul+Buriko+%7C+Sulawesi+Selatan+%7C+cengkeh,+Merica,+Durian,+Vanili,+Pala/@0.35424,114.6251234,6z/data=!4m7!3m6!1s0x2d968e47dcc4fc01:0xdb5dd874b9091f1e!8m2!3d-3.6719032!4d120.4017007!15sChVjZW5na2VoIGZhcm0gc3VsYXdlc2laFyIVY2VuZ2tlaCBmYXJtIHN1bGF3ZXNpkgENcGxhbnRfbnVyc2VyeZoBI0NoWkRTVWhOTUc5blMwVkpRMEZuU1VSNU0xOURiazFuRUFF4AEA!16s%2Fg%2F11bzyxtf3m?entry=tts&g_ep=EgoyMDI0MTEwNS4wIPu8ASoASAFQAw%3D%3D",cengkeh,"August, September","[8,9]"
Pondok cengkeh Muhajir Junadin,Pondok cengkeh Muhajir Junadin,-1.8340875,123.0779219,"538H+957, Tabulang, Bangkurung, Banggai Laut, Central Sulawesi, Indonesia",Tabulang,Bangkurung,Kabupaten Banggai,Central Sulawesi,Sulawesi Tengah,,"https://www.google.com/maps/place/Pondok+cengkeh+Muhajir+Junadin/@0.35424,114.6251234,6z/data=!4m7!3m6!1s0x2d84a1002bb00161:0xf2a66d8e01446635!8m2!3d-1.8340431!4d123.0778961!15sChVjZW5na2VoIGZhcm0gc3VsYXdlc2laFyIVY2VuZ2tlaCBmYXJtIHN1bGF3ZXNpkgEHb3JjaGFyZJoBI0NoWkRTVWhOTUc5blMwVkpRMEZuU1VOcWRHOWxNbE5CRUFF4AEA!16s%2Fg%2F11y41dh6l5?entry=tts&g_ep=EgoyMDI0MTEwNS4wIPu8ASoASAFQAw%3D%3D",cengkeh,"August, September","[8,9]"
Kebun cengkeh Essang,Kebun cengkeh Essang,-0.0449625,119.7369219,"XP4P+2Q7, Pomolulu, Balaesang Tanjung, Donggala, Donggala Regency, Central Sulawesi, Indonesia",,Balaesang Tanjung,Kabupaten Donggala,Central Sulawesi,Sulawesi Tengah,,"https://www.google.com/maps/place/Kebun+cengkeh+Essang/@-0.0449525,110.5083985,6z/data=!4m7!3m6!1s0x2d8a75004cc5cd09:0x34450c8b9d876b9d!8m2!3d-0.0449525!4d119.7369141!15sChVjZW5na2VoIGZhcm0gc3VsYXdlc2mSAQdvcmNoYXJk4AEA!16s%2Fg%2F11w33qy0bp?entry=tts&g_ep=EgoyMDI0MTEwNS4wIPu8ASoASAFQAw%3D%3D",cengkeh,"August, September","[8,9]"
kebun cengkeh maroangin,kebun cengkeh maroangin,-2.8452125,120.0888281,"533Q+WG8, Sangtandung, Walenrang Utara, Luwu Regency, South Sulawesi, Indonesia",Sangtandung,Walenrang Utara,Kabupaten Luwu,South Sulawesi,Sulawesi Selatan,,"https://www.google.com/maps/place/kebun+cengkeh+maroangin/@-0.0449525,110.5083985,6z/data=!4m7!3m6!1s0x2d93d90011786617:0x97cc78b39bc38bf3!8m2!3d-2.8452099!4d120.0888283!15sChVjZW5na2VoIGZhcm0gc3VsYXdlc2mSAQtoaWtpbmdfYXJlYeABAA!16s%2Fg%2F11y4ymk7bj?entry=tts&g_ep=EgoyMDI0MTEwNS4wIPu8ASoASAFQAw%3D%3D",cengkeh,"August, September","[8,9]"
Perkebunan Cengkeh Desa Botuliodu,Perkebunan Cengkeh Desa Botuliodu,0.3369875,123.7697656,"8QP9+QWR, Botuliodu, kec tomini, South Bolaang Mongondow Regency, North Sulawesi, Indonesia",Botuliodu,Tomini,Kabupaten Bolaang Mongondow Selatan,North Sulawesi,Sulawesi Utara,,"https://www.google.com/maps/place/Perkebunan+Cengkeh+Desa+Botuliodu/@-0.0449525,110.5083985,6z/data=!4m7!3m6!1s0x327f09cfcfd3e0d3:0x39f0755648b16463!8m2!3d0.336976!4d123.7697632!15sChVjZW5na2VoIGZhcm0gc3VsYXdlc2laFyIVY2VuZ2tlaCBmYXJtIHN1bGF3ZXNpkgEQYm90YW5pY2FsX2dhcmRlbpoBI0NoWkRTVWhOTUc5blMwVkpRMEZuU1VOeE1GQXpVa2RuRUFF4AEA!16s%2Fg%2F11ghp8w2xn?entry=tts&g_ep=EgoyMDI0MTEwNS4wIPu8ASoASAFQAw%3D%3D",cengkeh,"August, September","[8,9]"
Kakao kualitas tinggi Bulukumba,Kakao kualitas tinggi Bulukumba,-5.4261153,120.2455033,"Dusun Balo, Swatani, Kec. Rilau Ale, Kabupaten Bulukumba, Sulawesi Selatan 92552, Indonesia",Balo,Rilau Ale,Kabupaten Bulukumba,South Sulawesi,Sulawesi Selatan,+62 822-5930-0091,"https://www.google.com/maps/place/Kakao+kualitas+tinggi+Bulukumba/@-5.4308788,114.5532568,6z/data=!4m7!3m6!1s0x2dbc057eb72ddde5:0x4eece4f85f06ae96!8m2!3d-5.4308788!4d120.2526613!15sCg5rYWthbyBzdWxhd2VzaZIBBGZhcm3gAQA!16s%2Fg%2F11vlttvz0c?entry=tts&g_ep=EgoyMDI0MTEwNS4wIPu8ASoASAFQAw%3D%3D",kakao,"October, November, December, January, February, March","[10,11,12,1,2,3]"
Tugu Kakao,Tugu Kakao,-2.5586375,120.3021406,"C8R2+GVR, Radda, Baebunta, North Luwu Regency, South Sulawesi 92961, Indonesia",Radda,Baebunta,Kabupaten Luwu Utara,South Sulawesi,Sulawesi Selatan,,"https://www.google.com/maps/place/Tugu+Kakao/@-5.4308788,114.5532568,6z/data=!4m7!3m6!1s0x2d9185095956582d:0x9b3b153472886be0!8m2!3d-2.5586464!4d120.3021367!15sCg5rYWthbyBzdWxhd2VzaZIBEnRvdXJpc3RfYXR0cmFjdGlvbuABAA!16s%2Fg%2F11bxf_5zg8?entry=tts&g_ep=EgoyMDI0MTEwNS4wIPu8ASoASAFQAw%3D%3D",kakao,"October, November, December, January, February, March","[10,11,12,1,2,3]"
kakao fermentasi,kakao fermentasi,-0.948038,122.2483726,"Blok OO, Sumber Mulya, Kec. Simpang Raya, Luwuk, Sulawesi Tengah 94755, Indonesia","Blok OO, Sumber Mulya",Simpang Raya,Kabupaten Luwu,Central Sulawesi,Sulawesi Tengah,+62 821-9395-8880,"https://www.google.com/maps/place/kakao+fermentasi/@-5.4308788,114.5532568,6z/data=!4m7!3m6!1s0x2d867bc6237d3905:0x23d98779910764b!8m2!3d-0.9347816!4d122.2577094!15sCg5rYWthbyBzdWxhd2VzaZIBEWNob2NvbGF0ZV9mYWN0b3J54AEA!16s%2Fg%2F11tmqs48sy?entry=tts&g_ep=EgoyMDI0MTEwNS4wIPu8ASoASAFQAw%3D%3D",kakao,"October, November, December, January, February, March","[10,11,12,1,2,3]"
PT. Kalla Kakao,PT. Kalla Kakao,-5.1491125,119.4152969,"VC28+943, Kunjung Mae, Kec. Mariso, Kota Makassar, Sulawesi Selatan 90114",Kunjung Mae,Mariso,Kota Makassar,South Sulawesi,Sulawesi Selatan,,"https://www.google.com/maps/place/PT.+Kalla+Kakao/@-5.1491012,110.1867792,6z/data=!4m7!3m6!1s0x2dbf1d0428a012f1:0x685e17d88ab382e!8m2!3d-5.1491012!4d119.4152948!15sCg5rYWthbyBzdWxhd2VzaZIBEGNvcnBvcmF0ZV9vZmZpY2XgAQA!16s%2Fg%2F11f6dtnp9l?entry=tts&g_ep=EgoyMDI0MTEwNS4wIPu8ASoASAFQAw%3D%3D",kakao,"October, November, December, January, February, March","[10,11,12,1,2,3]"
PT Kalla Kakao Industri,PT Kalla Kakao Industri,-4.0529625,122.4444219,"WCWV+RQ7, Ranooha, Kec. Ranomeeto, Kabupaten Konawe Selatan, Sulawesi Tenggara 93871",Ranooha,Ranomeeto,Kabupaten Konawe Selatan,Southeast Sulawesi,Sulawesi Tenggara,(0401) 3139817,"https://www.google.com/maps/place/PT+Kalla+Kakao+Industri/@-5.1491012,110.1867792,6z/data=!4m7!3m6!1s0x2d988bf79a4b2d81:0x4c69f4bd06d22727!8m2!3d-4.0529607!4d122.4444244!15sCg5rYWthbyBzdWxhd2VzaZIBEGNvcnBvcmF0ZV9vZmZpY2XgAQA!16s%2Fg%2F11clyszmr2?entry=tts&g_ep=EgoyMDI0MTEwNS4wIPu8ASoASAFQAw%3D%3D",kakao,"October, November, December, January, February, March","[10,11,12,1,2,3]"
Kakao Inti Sulawesi. PT,Kakao Inti Sulawesi. PT,-5.114923,119.43588,"Jl. Teuku Umar Raya No.96, Kaluku Bodoa, Kec. Tallo, Kota Makassar, Sulawesi Selatan 90212",,Tallo,Kota Makassar,South Sulawesi,Sulawesi Selatan,(0411) 319586,"https://www.google.com/maps/place/Kakao+Inti+Sulawesi.+PT/@-5.1491012,110.1867792,6z/data=!4m7!3m6!1s0x2dbefd6de43e6dad:0xc54fa53391faded!8m2!3d-5.114764!4d119.435804!15sCg5rYWthbyBzdWxhd2VzaeABAA!16s%2Fg%2F1pzsbx9_j?entry=tts&g_ep=EgoyMDI0MTEwNS4wIPu8ASoASAFQAw%3D%3D",kakao,"October, November, December, January, February, March","[10,11,12,1,2,3]"
Kakao sondoang Dybha Basrhy,Kakao sondoang Dybha Basrhy,-2.6103082,119.1274334,"Jl. Kalumpang dusun, Sondoang, Kec. Kalukku, Kabupaten Mamuju, Sulawesi Barat 91561",Kalumpang,Kalukku,Kabupaten Mamuju,West Sulawesi,Sulawesi Barat,0852-4074-9587,"https://www.google.com/maps/place/Kakao+sondoang+Dybha+Basrhy/@-5.1491012,110.1867792,6z/data=!4m7!3m6!1s0x2d92e726c3e088e1:0x5652964d0c685884!8m2!3d-2.5862634!4d119.1280824!15sCg5rYWthbyBzdWxhd2VzaZIBBGZhcm3gAQA!16s%2Fg%2F11wmt28nlk?entry=tts&g_ep=EgoyMDI0MTEwNS4wIPu8ASoASAFQAw%3D%3D",kakao,"October, November, December, January, February, March","[10,11,12,1,2,3]"
Pembibitan Kakao Sambung Pucuk,Pembibitan Kakao Sambung Pucuk,-1.3666625,120.6385781,"JJMQ+8CP, Lape, Kec. Poso Pesisir, Kabupaten Poso, Sulawesi Tengah 94652",Lape,Poso Pesisir,Kabupaten Poso,Central Sulawesi,Sulawesi Tengah,0813-4296-9747,"https://www.google.com/maps/place/Pembibitan+Kakao+Sambung+Pucuk/@-5.1491012,110.1867792,6z/data=!4m7!3m6!1s0x2d8ee93a7775c7a9:0x2ad3b529fdec51be!8m2!3d-1.3666715!4d120.6385769!15sCg5rYWthbyBzdWxhd2VzaZIBDXBsYW50X251cnNlcnngAQA!16s%2Fg%2F11hr4k3v2k?entry=tts&g_ep=EgoyMDI0MTEwNS4wIPu8ASoASAFQAw%3D%3D",kakao,"October, November, December, January, February, March","[10,11,12,1,2,3]"
Kakao Bulukumba-Budidaya kakao mallebbang,Kakao Bulukumba-Budidaya kakao mallebbang,-5.3583119,120.199981,"Dusun Mallebbang, Jojjolo, Kec. Bulukumpa, Kabupaten Bulukumba, Sulawesi Selatan 92552",Mallebbang,Bulukumpa,Kabupaten Bulukumba,South Sulawesi,Sulawesi Selatan,0853-9925-8299,"https://www.google.com/maps/place/Kakao+Bulukumba-Budidaya+kakao+mallebbang/@-5.1491012,110.1867792,6z/data=!4m7!3m6!1s0x2dbc1d1123a04fbd:0xd7788fd553397576!8m2!3d-5.3562902!4d120.1892432!15sCg5rYWthbyBzdWxhd2VzaZIBBGZhcm3gAQA!16s%2Fg%2F11vltv526b?entry=tts&g_ep=EgoyMDI0MTEwNS4wIPu8ASoASAFQAw%3D%3D",kakao,"October, November, December, January, February, March","[10,11,12,1,2,3]"
Kawasan kakao center kolaka utara (dinas perkebunan kolaka utara),Kawasan kakao center kolaka utara (dinas perkebunan kolaka utara),-3.4873625,120.8801719,"GV7J+333, Ponggiha, Kec. Lasusua, Kabupaten Kolaka Utara, Sulawesi Tenggara 93914",Ponggiha,Lasusua,Kabupaten Kolaka Utara,Southeast Sulawesi,Sulawesi Tenggara,,"https://www.google.com/maps/place/Kawasan+kakao+center+kolaka+utara+(dinas+perkebunan+kolaka+utara)/@-5.1491012,110.1867792,6z/data=!4m7!3m6!1s0x2d96df63ea9c7c21:0x275ab1e90d0a5f38!8m2!3d-3.4873504!4d120.8801641!15sCg5rYWthbyBzdWxhd2VzaZIBEGNvcnBvcmF0ZV9vZmZpY2XgAQA!16s%2Fg%2F11k2hq9bh1?entry=tts&g_ep=EgoyMDI0MTEwNS4wIPu8ASoASAFQAw%3D%3D",kakao,"October, November, December, January, February, March","[10,11,12,1,2,3]"
Kebun kakao,Kebun kakao,-3.8857625,122.0403594,"427R+M4X, Anggopiu, Kec. Uepai, Kabupaten Konawe, Sulawesi Tenggara 93415",Anggopiu,Uepai,Kabupaten Konawe,Southeast Sulawesi,Sulawesi Tenggara,,"https://www.google.com/maps/place/Kebun+kakao/@-5.1491012,110.1867792,6z/data=!4m7!3m6!1s0x2d984794f7312e57:0x7126d52a98f30566!8m2!3d-3.8853174!4d122.0411143!15sCg5rYWthbyBzdWxhd2VzaZIBBmdhcmRlbuABAA!16s%2Fg%2F11s3bj8mr6?entry=tts&g_ep=EgoyMDI0MTEwNS4wIPu8ASoASAFQAw%3D%3D",kakao,"October, November, December, January, February, March","[10,11,12,1,2,3]"
"Rumah Pembibitan Kakao Adeeva, Mitra PT.TMCI","Rumah Pembibitan Kakao Adeeva, Mitra PT.TMCI",-2.5238777,119.0761183,"F3QM+MV7, Jl. Poros Palu - Mamuju, Beru-Beru, Kec. Kalukku, Kabupaten Mamuju, Sulawesi Barat 91561",,Kalukku,Kabupaten Mamuju,West Sulawesi,Sulawesi Barat,,"https://www.google.com/maps/place/Rumah+Pembibitan+Kakao+Adeeva,+Mitra+PT.TMCI/@-5.1491012,110.1867792,6z/data=!4m7!3m6!1s0x2d92e95f60cd3e47:0x6d019de3109a0b18!8m2!3d-2.5108276!4d119.0846799!15sCg5rYWthbyBzdWxhd2VzaZIBDG1hbnVmYWN0dXJlcuABAA!16s%2Fg%2F11p5lxnysr?entry=tts&g_ep=EgoyMDI0MTEwNS4wIPu8ASoASAFQAw%3D%3D",kakao,"October, November, December, January, February, March","[10,11,12,1,2,3]"
Wow farm Kakao,Wow farm Kakao,-3.2878616,121.0041941,"PX5X+62Q, Jl. Poros Lapai - Malili, Samaturu, Kec. Watunohu, Kabupaten Kolaka Utara, Sulawesi Tenggara 93958",,Watunohu,Kabupaten Kolaka Utara,Southeast Sulawesi,Sulawesi Tenggara,,"https://www.google.com/maps/place/Wow+farm+Kakao/@-5.1491012,110.1867792,6z/data=!4m7!3m6!1s0x2d972f81f2bc2d23:0x4893c0415f03f06b!8m2!3d-3.2922988!4d120.9971413!15sCg5rYWthbyBzdWxhd2VzaZIBEGNvcnBvcmF0ZV9vZmZpY2XgAQA!16s%2Fg%2F11vbjvnd77?entry=tts&g_ep=EgoyMDI0MTEwNS4wIPu8ASoASAFQAw%3D%3D",kakao,"October, November, December, January, February, March","[10,11,12,1,2,3]"
Perkebunan Kakao Umar Hamma,Perkebunan Kakao Umar Hamma,-0.9734125,119.8939531,"2VGV+JHP, Kabobona, Kec. Dolo, Kabupaten Sigi, Sulawesi Tengah 94362",,Dolo,Kabupaten Sigi,Central Sulawesi,Sulawesi Tengah,0853-4218-2759,"https://www.google.com/maps/place/Perkebunan+Kakao+Umar+Hamma/@-5.1491012,110.1867792,6z/data=!4m7!3m6!1s0x2d8bf12f72e4b2f9:0x57927f2a621912b2!8m2!3d-0.9734159!4d119.8939519!15sCg5rYWthbyBzdWxhd2VzaZIBCXRyZWVfZmFybeABAA!16s%2Fg%2F11f6np2hw7?entry=tts&g_ep=EgoyMDI0MTEwNS4wIPu8ASoASAFQAw%3D%3D",kakao,"October, November, December, January, February, March","[10,11,12,1,2,3]"
Agro wisata kakao,Agro wisata kakao,-2.5619385,120.8211796,"Tarengge, Kec. Wotu, Kabupaten Luwu Timur, Sulawesi Selatan 92971",Tarengge,Wotu,Kabupaten Luwu Timur,South Sulawesi,Sulawesi Selatan,0853-4221-3853,"https://www.google.com/maps/place/Agro+wisata+kakao/@-5.1491012,110.1867792,6z/data=!4m7!3m6!1s0x2d91add2f13119a5:0x44055a9a681e1fdd!8m2!3d-2.5655681!4d120.8269401!15sCg5rYWthbyBzdWxhd2VzaZIBCXRyZWVfZmFybeABAA!16s%2Fg%2F11s7lzq7rg?entry=tts&g_ep=EgoyMDI0MTEwNS4wIPu8ASoASAFQAw%3D%3D",kakao,"October, November, December, January, February, March","[10,11,12,1,2,3]"
Kebun Kakao H. Urip Gunawan,Kebun Kakao H. Urip Gunawan,-1.1926875,119.3674375,"R948+WX, Pasangkayu, Kec. Pasangkayu, Kab. Pasangkayu, Sulawesi Barat",,Pasangkayu,Kabupaten Pasangkayu,West Sulawesi,Sulawesi Barat,,"https://www.google.com/maps/place/Kebun+Kakao+H.+Urip+Gunawan/@-5.1491012,110.1867792,6z/data=!4m7!3m6!1s0x2d8c89007b7857d1:0x4e72cc7b636d0c10!8m2!3d-1.1926637!4d119.3674093!15sCg5rYWthbyBzdWxhd2VzaZIBEnRvdXJpc3RfYXR0cmFjdGlvbuABAA!16s%2Fg%2F11vz2m7qyb?entry=tts&g_ep=EgoyMDI0MTEwNS4wIPu8ASoASAFQAw%3D%3D",kakao,"October, November, December, January, February, March","[10,11,12,1,2,3]"
Koko Luay Sulawesi Chocolate,Sulawesi Koko Luay,-5.2376137,119.5079451,"Perumahan Nayla Regency, Jl. Hamzah Dg.Tompo No.15 Blok A, Bontomanai, Kec. Bontomarannu, Kabupaten Gowa, Sulawesi Selatan 92171",Bontomanai,Bontomarannu,Kabupaten Gowa,South Sulawesi,Sulawesi Selatan,,"https://www.google.com/maps/place/Sulawesi+Koko+Luay/@-5.1491012,110.1867792,6z/data=!4m7!3m6!1s0x2dbee19e7894f449:0x57515783138ba1d6!8m2!3d-5.2376137!4d119.5079451!15sCg5rYWthbyBzdWxhd2VzaZIBEWNob2NvbGF0ZV9mYWN0b3J54AEA!16s%2Fg%2F11q1vdf855?entry=tts&g_ep=EgoyMDI0MTEwNS4wIPu8ASoASAFQAw%3D%3D",kakao,"October, November, December, January, February, March","[10,11,12,1,2,3]"
Perkebunan kakao,Perkebunan kakao,-2.9621875,119.1659375,"25Q8+49, Saludurian, Kec. Mambi, Kabupaten Mamasa, Sulawesi Barat",Saludurian,Mambi,Kabupaten Mamasa,West Sulawesi,Sulawesi Barat,,"https://www.google.com/maps/place/Perkebunan+kakao/@-5.1491012,110.1867792,6z/data=!4m7!3m6!1s0x2d9313005065358b:0x600fd17cf5f887b5!8m2!3d-2.9622418!4d119.1659807!15sCg5rYWthbyBzdWxhd2VzaZIBC2hpa2luZ19hcmVh4AEA!16s%2Fg%2F11vz7sp9xx?entry=tts&g_ep=EgoyMDI0MTEwNS4wIPu8ASoASAFQAw%3D%3D",kakao,"October, November, December, January, February, March","[10,11,12,1,2,3]"
PT. Papandayan Cocoa Industries - Barry Callebaut,PT. Papandayan Cocoa Industries - Barry Callebaut,-5.0760407,119.5146498,"WGH7+M5R, Jln. Ir. Sutami 88 RG, Sudiang, Biringkanaya, Makassar City, South Sulawesi 90242",,Biringkanaya,Kota Makassar,South Sulawesi,Sulawesi Selatan,,"https://www.google.com/maps/place/PT.+Papandayan+Cocoa+Industries+-+Barry+Callebaut/@-5.1491012,110.1867792,6z/data=!4m7!3m6!1s0x2dbefbb249fcf897:0xbb33b77732e462a8!8m2!3d-5.0708783!4d119.5128252!15sCg5rYWthbyBzdWxhd2VzaZIBEGNvcnBvcmF0ZV9vZmZpY2XgAQA!16s%2Fg%2F11fmbbpkt3?entry=tts&g_ep=EgoyMDI0MTEwNS4wIPu8ASoASAFQAw%3D%3D",kakao,"October, November, December, January, February, March","[10,11,12,1,2,3]"
Perkebunan kakao Lathifah,Perkebunan kakao Lathifah,0.5330875,120.9834844,"GXMM+69Q, Unnamed Road, Wanagading, Kec. Bolano Lambunu, Kabupaten Parigi Moutong, Sulawesi Tengah 94479",Wanagading,Bolano Lambunu,Kabupaten Parigi Moutong,Central Sulawesi,Sulawesi Tengah,0813-5500-3033,"https://www.google.com/maps/place/Perkebunan+kakao+Lathifah/@-5.1491012,110.1867792,6z/data=!4m7!3m6!1s0x3277017cab28b12d:0x3a3b730e2390abef!8m2!3d0.533098!4d120.98347!15sCg5rYWthbyBzdWxhd2VzaZIBCXRyZWVfZmFybeABAA!16s%2Fg%2F11qt46z00w?entry=tts&g_ep=EgoyMDI0MTEwNS4wIPu8ASoASAFQAw%3D%3D",kakao,"October, November, December, January, February, March","[10,11,12,1,2,3]"
Asosiasi Kakao Indonesia / ASKINDO,Asosiasi Kakao Indonesia %2F ASKINDO,-5.1509248,119.4220248,"Jl. Rusa No.45 B, Maricaya, Kec. Makassar, Kota Makassar, Sulawesi Selatan 90142",,Makassar,Kota Makassar,South Sulawesi,Sulawesi Selatan,(0411) 878604,"https://www.google.com/maps/place/Asosiasi+Kakao+Indonesia+%2F+ASKINDO/@-5.1491012,110.1867792,6z/data=!4m7!3m6!1s0x2dbee2a899dccda3:0xcaa0b1bf7228267!8m2!3d-5.1509186!4d119.42196!15sCg5rYWthbyBzdWxhd2VzaZIBG2Fzc29jaWF0aW9uX29yX29yZ2FuaXphdGlvbuABAA!16s%2Fg%2F1hc4zl9gs?entry=tts&g_ep=EgoyMDI0MTEwNS4wIPu8ASoASAFQAw%3D%3D",kakao,"October, November, December, January, February, March","[10,11,12,1,2,3]"
Pusat Penjualan Bibit Kakao / Bibit Coklat Sambung Pucuk,Pusat Penjualan Bibit Kakao %2F Bibit Coklat Sambung Pucuk,-2.5783644,120.6890055,"Cendana, Kec. Burau, Kabupaten Luwu Timur, Sulawesi Selatan 92975",Cendana,Burau,Kabupaten Luwu Timur,South Sulawesi,Sulawesi Selatan,0853-9999-0758,"https://www.google.com/maps/place/Pusat+Penjualan+Bibit+Kakao+%2F+Bibit+Coklat+Sambung+Pucuk/@-5.1491012,110.1867792,6z/data=!4m7!3m6!1s0x2d91a50a7b927151:0xb9402fa2a16090bd!8m2!3d-2.5609721!4d120.6855777!15sCg5rYWthbyBzdWxhd2VzaZIBDXBsYW50X251cnNlcnngAQA!16s%2Fg%2F11df81ph49?entry=tts&g_ep=EgoyMDI0MTEwNS4wIPu8ASoASAFQAw%3D%3D",kakao,"October, November, December, January, February, March","[10,11,12,1,2,3]"
Cacao Farm Libas Utama,Cacao Farm Libas Utama,-3.1394375,121.0772344,"V36G+6VH, Latali, Kec. Pakue Tengah, Kabupaten Kolaka Utara, Sulawesi Tenggara 93954",Latali,Pakue Tengah,Kabupaten Kolaka Utara,Southeast Sulawesi,Sulawesi Tenggara,,"https://www.google.com/maps/place/Cacao+Farm+Libas+Utama/@-5.1491012,110.1867792,6z/data=!4m7!3m6!1s0x2d90d3079a52be81:0xe203a196f7c7f57e!8m2!3d-3.1394478!4d121.077221!15sCg5rYWthbyBzdWxhd2VzaZIBEnRvdXJpc3RfYXR0cmFjdGlvbuABAA!16s%2Fg%2F11sy_6c70p?entry=tts&g_ep=EgoyMDI0MTEwNS4wIPu8ASoASAFQAw%3D%3D",kakao,"October, November, December, January, February, March","[10,11,12,1,2,3]"
Usaha Pembibitan Kakao,Usaha Pembibitan Kakao,-2.6176125,120.5102344,"9GJ6+X35, Muktisari, Kec. Bone-Bone, Kabupaten Luwu Utara, Sulawesi Selatan 91966",Muktisari,Bone-Bone,Kabupaten Luwu Utara,South Sulawesi,Sulawesi Selatan,,"https://www.google.com/maps/place/Usaha+Pembibitan+Kakao/@-5.1491012,110.1867792,6z/data=!4m7!3m6!1s0x2d919f6a07d12ac7:0xace3ff615f517153!8m2!3d-2.6176159!4d120.5102315!15sCg5rYWthbyBzdWxhd2VzaZIBDXBsYW50X251cnNlcnngAQA!16s%2Fg%2F11cn8ys4pf?entry=tts&g_ep=EgoyMDI0MTEwNS4wIPu8ASoASAFQAw%3D%3D",kakao,"October, November, December, January, February, March","[10,11,12,1,2,3]"
Nursery Pembibitan Kakao (Norma Lajimpe),Nursery Pembibitan Kakao (Norma Lajimpe),-0.9178284,122.2285171,"Desa Simpang I, Simpang Satu, Kec. Simpang Raya, Kabupaten Banggai, Sulawesi Tengah 94755","Simpang I, Simpang Satu",Simpang Raya,Kabupaten Banggai,Central Sulawesi,Sulawesi Tengah,0822-3109-9290,"https://www.google.com/maps/place/Nursery+Pembibitan+Kakao+(Norma+Lajimpe)/@-5.1491012,110.1867792,6z/data=!4m7!3m6!1s0x2d867b7390892e63:0x2341021baf859384!8m2!3d-0.9093302!4d122.2310105!15sCg5rYWthbyBzdWxhd2VzaZIBDXBsYW50X251cnNlcnngAQA!16s%2Fg%2F11vy29zq4q?entry=tts&g_ep=EgoyMDI0MTEwNS4wIPu8ASoASAFQAw%3D%3D",kakao,"October, November, December, January, February, March","[10,11,12,1,2,3]"
Perkebunan kakao simbala,Perkebunan kakao simbala,0.6460521,124.2754988,"Unnamed Road, Tungoi II, Kec. Lolayan, Kabupaten Bolaang Mongondow, Sulawesi Utara",Tungoi II,Lolayan,Kabupaten Bolaang Mongondow,North Sulawesi,Sulawesi Utara,0852-3448-1377,"https://www.google.com/maps/place/Perkebunan+kakao+simbala/@0.6724636,115.0634827,6z/data=!4m7!3m6!1s0x327e3bb3f52b3f8b:0xb2dce8fd6be83fe7!8m2!3d0.6724636!4d124.2919983!15sCg5rYWthbyBzdWxhd2VzaZIBA2JhcuABAA!16s%2Fg%2F11lgpn6tpq?entry=tts&g_ep=EgoyMDI0MTEwNS4wIPu8ASoASAFQAw%3D%3D",kakao,"October, November, December, January, February, March","[10,11,12,1,2,3]"
Pembibitan Kakao Tambuli,Pembibitan Kakao Tambuli,-0.9633302,119.9104436,"Lolu, Kec. Sigi Biromaru, Kabupaten Sigi, Sulawesi Tengah 94231",Lolu,Sigi Biromaru,Kabupaten Sigi,Central Sulawesi,Sulawesi Tengah,0853-4270-5575,"https://www.google.com/maps/place/Pembibitan+Kakao+Tambuli/@-0.9580039,110.6802533,6z/data=!4m7!3m6!1s0x2d8bf10dbf0f4fef:0xf0b65868f14aea77!8m2!3d-0.9580039!4d119.9087689!15sCg5rYWthbyBzdWxhd2VzaZIBEGNvcnBvcmF0ZV9vZmZpY2XgAQA!16s%2Fg%2F11hd1m84zk?entry=tts&g_ep=EgoyMDI0MTEwNS4wIPu8ASoASAFQAw%3D%3D",kakao,"October, November, December, January, February, March","[10,11,12,1,2,3]"
Tefa Kakao,Tefa Kakao,-4.5687996,119.5982157,"Jl. Poros Palopo - Makassar No.Km. 83, Mandalle, Kec. Mandalle, Kabupaten Pangkajene Dan Kepulauan, Sulawesi Selatan 90761",,Mandalle,Kabupaten Pangkajene dan Kepulauan,South Sulawesi,Sulawesi Selatan,0852-4086-2868,"https://www.google.com/maps/place/Tefa+Kakao/@-0.9580039,110.6802533,6z/data=!4m7!3m6!1s0x2dbe31f1de6e5f99:0xdeb623891276b206!8m2!3d-4.5666775!4d119.5975717!15sCg5rYWthbyBzdWxhd2VzaZIBFmZvb2RfcHJvZHVjdHNfc3VwcGxpZXLgAQA!16s%2Fg%2F11s8h98c_j?entry=tts&g_ep=EgoyMDI0MTEwNS4wIPu8ASoASAFQAw%3D%3D",kakao,"October, November, December, January, February, March","[10,11,12,1,2,3]"
Kampoeng Cokelat Chalodo,Cafe %26 Warkop Chalodo,-2.5544804,120.327695,"Bone, Kec. Masamba, Kabupaten Luwu Utara, Sulawesi Selatan 92961",,Masamba,Kabupaten Luwu Utara,South Sulawesi,Sulawesi Selatan,0822-9059-4455,"https://www.google.com/maps/place/Cafe+%26+Warkop+Chalodo/@-0.9580039,110.6802533,6z/data=!4m7!3m6!1s0x2d918540b19bd42d:0xf5b79fef081ec653!8m2!3d-2.5527731!4d120.3258241!15sCg5rYWthbyBzdWxhd2VzaVoQIg5rYWthbyBzdWxhd2VzaZIBDmNob2NvbGF0ZV9jYWZl4AEA!16s%2Fg%2F11b6vfs_hl?entry=tts&g_ep=EgoyMDI0MTEwNS4wIPu8ASoASAFQAw%3D%3D",kakao,"October, November, December, January, February, March","[10,11,12,1,2,3]"
PEMBELIAN BIJI KAKAO BASAH,PEMBELIAN BIJI KAKAO BASAH,-3.2303467,119.1565087,"Taba-taban, Bulo, Kec. Bulo, Kabupaten Polewali Mandar, Sulawesi Barat","Taba-taban, Bulo",Bulo,Kabupaten Polewali Mandar,West Sulawesi,Sulawesi Barat,,"https://www.google.com/maps/place/PEMBELIAN+BIJI+KAKAO+BASAH/@-0.9580039,110.6802533,6z/data=!4m7!3m6!1s0x2d9363fa704cdaf5:0x38ee750f96dbeb91!8m2!3d-3.2303467!4d119.1565087!15sCg5rYWthbyBzdWxhd2VzaZIBB21pc3Npb27gAQA!16s%2Fg%2F11t1lbgcnz?entry=tts&g_ep=EgoyMDI0MTEwNS4wIPu8ASoASAFQAw%3D%3D",kakao,"October, November, December, January, February, March","[10,11,12,1,2,3]"
Petani Milenial Kakao Bantaeng Kampala,Petani Milenial Kakao Bantaeng Kampala,-5.4378596,119.9885061,"Kampala, Kec. Eremerasa, Kabupaten Bantaeng, Sulawesi Selatan 92415",Kampala,Eremerasa,Kabupaten Bantaeng,South Sulawesi,Sulawesi Selatan,0821-9040-4846,"https://www.google.com/maps/place/Petani+Milenial+Kakao+Bantaeng+Kampala/@-0.9580039,110.6802533,6z/data=!4m7!3m6!1s0x2dbeaf83cdae319d:0xf9cdd370c07e52c0!8m2!3d-5.4419032!4d119.9880457!15sCg5rYWthbyBzdWxhd2VzaZIBBGZhcm3gAQA!16s%2Fg%2F11vlwd6xxb?entry=tts&g_ep=EgoyMDI0MTEwNS4wIPu8ASoASAFQAw%3D%3D",kakao,"October, November, December, January, February, March","[10,11,12,1,2,3]"
Demplot kebuh Kakao,Demplot kebuh Kakao,-3.2878616,121.0041941,"PX5W+CVX, Jl. Poros Lapai - Malili, Samaturu, Kec. Watunohu, Kabupaten Kolaka Utara, Sulawesi Tenggara 93958",Samaturu,Watunohu,Kabupaten Kolaka Utara,Southeast Sulawesi,Sulawesi Tenggara,,"https://www.google.com/maps/place/Demplot+kebuh+Kakao/@-0.9580039,110.6802533,6z/data=!4m7!3m6!1s0x2d972fe0db1e07a9:0x404235d4742d8c4e!8m2!3d-3.2913999!4d120.9972457!15sCg5rYWthbyBzdWxhd2VzaZIBEGNvcnBvcmF0ZV9vZmZpY2XgAQA!16s%2Fg%2F11j318fv3c?entry=tts&g_ep=EgoyMDI0MTEwNS4wIPu8ASoASAFQAw%3D%3D",kakao,"October, November, December, January, February, March","[10,11,12,1,2,3]"
SABUN CAIR KULIT KAKAO,SABUN CAIR KULIT KAKAO,-3.3128556,120.2915496,"PINTOE, Jl. Poros Sumabu, Buntu Babang, Kec. Bajo, Kabupaten Luwu, Sulawesi Selatan 91995",PINTOE,Bajo,Kabupaten Luwu,South Sulawesi,Sulawesi Selatan,0852-4285-5666,"https://www.google.com/maps/place/SABUN+CAIR+KULIT+KAKAO/@-0.9580039,110.6802533,6z/data=!4m7!3m6!1s0x2d96af92796b6acb:0xe75cca7b1249c66f!8m2!3d-3.3142121!4d120.2951271!15sCg5rYWthbyBzdWxhd2VzaVoQIg5rYWthbyBzdWxhd2VzaZIBBXN0b3JlmgEjQ2haRFNVaE5NRzluUzBWSlEwRm5TVU5LZUZCaVpFcFJFQUXgAQA!16s%2Fg%2F11svn73bs2?entry=tts&g_ep=EgoyMDI0MTEwNS4wIPu8ASoASAFQAw%3D%3D",kakao,"October, November, December, January, February, March","[10,11,12,1,2,3]"
COLEKTION POIN KAKAO RUSJNAM SULO,COLEKTION POIN KAKAO RUSJNAM SULO,-2.7755875,120.2177344,"66F9+Q39, Unnamed Road, Bone Subur, Kec. Sabbang, Kabupaten Luwu Utara, Sulawesi Selatan 92965",Bone Subur,Sabbang,Kabupaten Luwu Utara,South Sulawesi,Sulawesi Selatan,,"https://www.google.com/maps/place/COLEKTION+POIN+KAKAO+RUSJNAM+SULO/@-0.9580039,110.6802533,6z/data=!4m7!3m6!1s0x2d917d1836c02335:0x5e4f938d965ce66d!8m2!3d-2.7755751!4d120.217735!15sCg5rYWthbyBzdWxhd2VzaZIBEGNvcnBvcmF0ZV9vZmZpY2XgAQA!16s%2Fg%2F11j5hs2qzg?entry=tts&g_ep=EgoyMDI0MTEwNS4wIPu8ASoASAFQAw%3D%3D",kakao,"October, November, December, January, February, March","[10,11,12,1,2,3]"
Pembibitan kakao Iwal,Pembibitan kakao Iwal,-2.7179337,120.1647036,"Jalan kemakmuran No.127, Kalotok, Kec. Sabbang, Kabupaten Luwu Utara, Sulawesi Selatan 92955",Kalotok,Sabbang,Kabupaten Luwu Utara,South Sulawesi,Sulawesi Selatan,0821-8734-4155,"https://www.google.com/maps/place/Pembibitan+kakao+Iwal/@-0.9580039,110.6802533,6z/data=!4m7!3m6!1s0x2d917fe85bc1f45d:0x6a531f9ec4257fee!8m2!3d-2.7189406!4d120.1763981!15sCg5rYWthbyBzdWxhd2VzaZIBDXBsYW50X251cnNlcnngAQA!16s%2Fg%2F11w8x3yq4h?entry=tts&g_ep=EgoyMDI0MTEwNS4wIPu8ASoASAFQAw%3D%3D",kakao,"October, November, December, January, February, March","[10,11,12,1,2,3]"
Perkebunan Kakao Saleo I,Perkebunan Kakao Saleo I,0.8697457,123.4075149,"Saleo Satu, Kec. Bolang Itang Tim., Kabupaten Bolaang Mongondow Utara, Sulawesi Utara 95764",Saleo Satu,Bolang Itang Tim,Kabupaten Bolaang Mongondow Utara,North Sulawesi,Sulawesi Utara,,"https://www.google.com/maps/place/Perkebunan+Kakao+Saleo+I/@-0.9580039,110.6802533,6z/data=!4m7!3m6!1s0x327ebd13dda1f6b5:0xc51609bc962018d!8m2!3d0.872686!4d123.4183341!15sCg5rYWthbyBzdWxhd2VzaZIBBGZhcm3gAQA!16s%2Fg%2F11whdt8sl0?entry=tts&g_ep=EgoyMDI0MTEwNS4wIPu8ASoASAFQAw%3D%3D",kakao,"October, November, December, January, February, March","[10,11,12,1,2,3]"
Kebun percontohan kakao,Kebun percontohan kakao,-4.2942125,120.0083594,"P245+889, Baringeng, Kec. Lili Rilau, Kabupaten Soppeng, Sulawesi Selatan 90871",Baringeng,Lili Rilau,Kabupaten Soppeng,South Sulawesi,Sulawesi Selatan,,"https://www.google.com/maps/place/Kebun+percontohan+kakao/@-0.9580039,110.6802533,6z/data=!4m7!3m6!1s0x2d95fb4cc9e0841f:0x5fe36ab76423f446!8m2!3d-4.2939262!4d120.008828!15sCg5rYWthbyBzdWxhd2VzaZIBEGVkdWNhdGlvbl9jZW50ZXLgAQA!16s%2Fg%2F11t_ks9539?entry=tts&g_ep=EgoyMDI0MTEwNS4wIPu8ASoASAFQAw%3D%3D",kakao,"October, November, December, January, February, March","[10,11,12,1,2,3]"
Kebun kakao papa ufi,Kebun kakao papa ufi,0.7251875,124.2693125,"P7G9+3P, Kopandakan II, Kec. Lolayan, Kabupaten Bolaang Mongondow, Sulawesi Utara",Kopandakan II,Lolayan,Kabupaten Bolaang Mongondow,North Sulawesi,Sulawesi Utara,,"https://www.google.com/maps/place/Kebun+kakao+papa+ufi/@-0.9580039,110.6802533,6z/data=!4m7!3m6!1s0x327e3d0075f5b21d:0xa48dd7562193b746!8m2!3d0.7251578!4d124.2692549!15sCg5rYWthbyBzdWxhd2VzaZIBEnRvdXJpc3RfYXR0cmFjdGlvbuABAA!16s%2Fg%2F11wfy65ggf?entry=tts&g_ep=EgoyMDI0MTEwNS4wIPu8ASoASAFQAw%3D%3D",kakao,"October, November, December, January, February, March","[10,11,12,1,2,3]"
Maju Bersama Cocoa Industries. PT,Maju Bersama Cocoa Industries. PT,-5.1080669,119.5001663,"Kawasan Industri Makassar (KIMA), JL. Kima 8, Kav. SS-21, Makassar, 90242, Bira, Tamalanrea, Makassar City, South Sulawesi 90243",Bira,Tamalanrea,Kota Makassar,South Sulawesi,Sulawesi Selatan,0822-4710-1857,"https://www.google.com/maps/place/Maju+Bersama+Cocoa+Industries.+PT/@-0.9580039,110.6802533,6z/data=!4m7!3m6!1s0x2dbefc7abc25dc4b:0xca9882a6b374cb86!8m2!3d-5.093135!4d119.500377!15sCg5rYWthbyBzdWxhd2VzaZIBEGNvcnBvcmF0ZV9vZmZpY2XgAQA!16s%2Fg%2F11r9m90dg?entry=tts&g_ep=EgoyMDI0MTEwNS4wIPu8ASoASAFQAw%3D%3D",kakao,"October, November, December, January, February, March","[10,11,12,1,2,3]"
KAMPUNG COKLAT,KAMPUNG COKLAT,-5.1986125,120.2287344,"R62H+HF5, Aska, Kec. Sinjai Sel., Kabupaten Sinjai, Sulawesi Selatan 92661",Aska,Sinjai Selatan,Kabupaten Sinjai,South Sulawesi,Sulawesi Selatan,,"https://www.google.com/maps/place/KAMPUNG+COKLAT/@-0.9580039,110.6802533,6z/data=!4m7!3m6!1s0x2dbc216cc9bcd8bd:0xcb0b50069824ec79!8m2!3d-5.19861!4d120.2287317!15sCg5rYWthbyBzdWxhd2VzaZIBEWNob2NvbGF0ZV9mYWN0b3J54AEA!16s%2Fg%2F11fx8rxysz?entry=tts&g_ep=EgoyMDI0MTEwNS4wIPu8ASoASAFQAw%3D%3D",kakao,"October, November, December, January, February, March","[10,11,12,1,2,3]"
Macoa,Macoa,-2.2482786,119.1969793,"Jl. Poros Majene - Mamuju Desa No.2, Sidorejo, Kec. Wonomulyo, Kabupaten Polewali Mandar, Sulawesi Barat 91352",,Wonomulyo,Kabupaten Polewali Mandar,West Sulawesi,Sulawesi Barat,,"https://www.google.com/maps/place/Macoa/@-0.9580039,110.6802533,6z/data=!4m7!3m6!1s0x2d949aa2e389ee47:0x4598473cdc73329c!8m2!3d-3.4032853!4d119.2114387!15sCg5rYWthbyBzdWxhd2VzaVoQIg5rYWthbyBzdWxhd2VzaZIBDmNob2NvbGF0ZV9zaG9wmgEkQ2hkRFNVaE5NRzluUzBWSlEwRm5TVVJsTnkxSWRHcG5SUkFC4AEA!16s%2Fg%2F11g6nb15hr?entry=tts&g_ep=EgoyMDI0MTEwNS4wIPu8ASoASAFQAw%3D%3D",kakao,"October, November, December, January, February, March","[10,11,12,1,2,3]"
Kebun Kakao Pua Fatih,Kebun Kakao Pua Fatih,-3.4304625,119.4060469,"HC94+RC7, Batetangnga, Kec. Binuang, Kabupaten Polewali Mandar, Sulawesi Barat",,Binuang,Kabupaten Polewali Mandar,West Sulawesi,Sulawesi Barat,,"https://www.google.com/maps/place/Kebun+Kakao+Pua+Fatih/@-0.9580039,110.6802533,6z/data=!4m7!3m6!1s0x2d94890034c8ef9b:0x726fb92a6b3f4a8c!8m2!3d-3.4304737!4d119.4060368!15sCg5rYWthbyBzdWxhd2VzaZIBBGZhcm3gAQA!16s%2Fg%2F11vm9mghft?entry=tts&g_ep=EgoyMDI0MTEwNS4wIPu8ASoASAFQAw%3D%3D",kakao,"October, November, December, January, February, March","[10,11,12,1,2,3]"
Perkebunan kakao klon entres,Perkebunan kakao klon entres,-5.1075625,122.4173125,"VCR8+XW, Wasolangka, Kec. Parigi, Kabupaten Muna, Sulawesi Tenggara",Wasolangka,Parigi,Kabupaten Muna,Southeast Sulawesi,Sulawesi Tenggara,,"https://www.google.com/maps/place/Perkebunan+kakao+klon+entres/@-0.9580039,110.6802533,6z/data=!4m7!3m6!1s0x2da3a1002771ce0f:0xbe26eade5b7dab7c!8m2!3d-5.107503!4d122.4173569!15sCg5rYWthbyBzdWxhd2VzaZIBG2Fzc29jaWF0aW9uX29yX29yZ2FuaXphdGlvbuABAA!16s%2Fg%2F11w3zrm2_b?entry=tts&g_ep=EgoyMDI0MTEwNS4wIPu8ASoASAFQAw%3D%3D",kakao,"October, November, December, January, February, March","[10,11,12,1,2,3]"
Pembibitan kakao dan hortikultura,Pembibitan kakao dan hortikultura,-2.4162846,119.1713393,"H5QH+VG5, Jl. Poros Palu - Mamuju, Topore, Kec. Papalang, Kabupaten Mamuju, Sulawesi Barat 91563",Topore,Papalang,Kabupaten Mamuju,West Sulawesi,Sulawesi Barat,0853-9716-0622,"https://www.google.com/maps/place/Pembibitan+kakao+dan+hortikultura/@-0.9498265,110.6789813,6z/data=!4m7!3m6!1s0x2d9293f3c256e0c1:0xd615c107289572a8!8m2!3d-2.4103567!4d119.1788717!15sChNmYXJtIGtha2FvIHN1bGF3ZXNpkgEEZmFybeABAA!16s%2Fg%2F11qqxw1jn5?entry=tts&g_ep=EgoyMDI0MTEwNS4wIPu8ASoASAFQAw%3D%3D",kakao,"October, November, December, January, February, March","[10,11,12,1,2,3]"
Budidaya kakao-Azka farm bulukumba,Budidaya kakao-Azka farm bulukumba,-5.4882071,120.2937683,"Dusun kampung, tengnga, Kec. Ujung Loe, Kabupaten Bulukumba, Sulawesi Selatan 92562","kampung, tengnga",Ujung Loe,Kabupaten Bulukumba,South Sulawesi,Sulawesi Selatan,0882-4229-2055,"https://www.google.com/maps/place/Budidaya+kakao-Azka+farm+bulukumba/@-0.9498265,110.6789813,6z/data=!4m7!3m6!1s0x2dbc0145869cdcf7:0x389de898a0f4f9f!8m2!3d-5.4886592!4d120.2243302!15sChNmYXJtIGtha2FvIHN1bGF3ZXNpkgEEZmFybeABAA!16s%2Fg%2F11vjnm7t2b?entry=tts&g_ep=EgoyMDI0MTEwNS4wIPu8ASoASAFQAw%3D%3D",kakao,"October, November, December, January, February, March","[10,11,12,1,2,3]"
Kebun pala,Kebun pala,0.5000625,121.0725625,"G32F+22, Taopa Utara, Kec. Taopa, Kabupaten Parigi Moutong, Sulawesi Tengah",Taopa Utara,Taopa,Kabupaten Parigi Moutong,Central Sulawesi,Sulawesi Tengah,,"https://www.google.com/maps/place/Kebun+pala/@0.500023,120.7841489,11z/data=!4m7!3m6!1s0x3277a9929777efd5:0x83b6cfc170b53248!8m2!3d0.500023!4d121.07254!15sChJQYWxhIGZhcm0gc3VsYXdlc2mSAQl0cmVlX2Zhcm3gAQA!16s%2Fg%2F11ksb79rc9?entry=tts&g_ep=EgoyMDI0MTEwNS4wIPu8ASoASAFQAw%3D%3D",kebun pala,"May, June, July, August","[5,6,7,8]"
JUAL BELI PALA & KEMIRI,JUAL BELI PALA %26 KEMIRI,-1.3532151,120.6443474,"JALAN TRANS SULAWESI KEC. POSO PESISIR. KAB. POSO DESA LAPE, JEMBATAN, Masani, Kabupaten Poso, Sulawesi Tengah 94652",Jembatan,Poso Pesisir,Kabupaten Poso,Central Sulawesi,Sulawesi Tengah,0858-6473-4535,"https://www.google.com/maps/place/JUAL+BELI+PALA+%26+KEMIRI/@-1.3817678,120.3421454,11z/data=!4m7!3m6!1s0x2d8eef81d40c4eaf:0x2ec2666ca6ceadf2!8m2!3d-1.3817678!4d120.6305365!15sChJQYWxhIGZhcm0gc3VsYXdlc2mSAQRmYXJt4AEA!16s%2Fg%2F11tf0x87mb?entry=tts&g_ep=EgoyMDI0MTEwNS4wIPu8ASoASAFQAw%3D%3D",kebun pala,"May, June, July, August","[5,6,7,8]"
BIbit Pala Bosagon jaya,BIbit Pala Bosagon jaya,0.5538625,120.7557969,"HQ34+G8V, Bosagon jaya, Kec. Ongka Malino, Kabupaten Parigi Moutong, Sulawesi Tengah",Bosagon Jaya,Ongka Malino,Kabupaten Parigi Moutong,Central Sulawesi,Sulawesi Tengah,,"https://www.google.com/maps/place/BIbit+Pala+Bosagon+jaya/@0.5536281,120.467502,11z/data=!4m7!3m6!1s0x3276f98612d711d3:0x48359c689c6f3bce!8m2!3d0.5536281!4d120.7558931!15sChJQYWxhIGZhcm0gc3VsYXdlc2mSAQRmYXJt4AEA!16s%2Fg%2F11shjhrgn3?entry=tts&g_ep=EgoyMDI0MTEwNS4wIPu8ASoASAFQAw%3D%3D",kebun pala,"May, June, July, August","[5,6,7,8]"
R.P.P. FARM,R.P.P. FARM,-0.789373,119.8796333,"Jl. Karana No.54, Mamboro, Kec. Palu Utara, Kota Palu, Sulawesi Tengah 94145",Mamboro,Palu Utara,Kota Palu,Central Sulawesi,Sulawesi Tengah,0822-6452-6146,"https://www.google.com/maps/place/R.P.P.+FARM/@-0.7902,119.5910972,11z/data=!4m7!3m6!1s0x2d8beb001c056e73:0xc76cb26705035ae4!8m2!3d-0.7902!4d119.8794883!15sChJQYWxhIGZhcm0gc3VsYXdlc2mSAQVyYW5jaOABAA!16s%2Fg%2F11vwy159db?entry=tts&g_ep=EgoyMDI0MTEwNS4wIPu8ASoASAFQAw%3D%3D",kebun pala,"May, June, July, August","[5,6,7,8]"
Perkebunan kelapa hybrida,Perkebunan kelapa hybrida,-3.7996373,119.8120795,"Mario, Kec. Kulo, Kabupaten Sidenreng Rappang, Sulawesi Selatan 91653",Mario,Kulo,Kabupaten Sidenreng Rappang,South Sulawesi,Sulawesi Selatan,0819-9903-2389,"https://www.google.com/maps/place/Perkebunan+kelapa+hybrida/@-0.9417188,110.6777092,6z/data=!4m7!3m6!1s0x2d94350f675e7a67:0xddb2d901c5a7f3c8!8m2!3d-3.8084592!4d119.8471314!15sChRmYXJtIGtlbGFwYSBzdWxhd2VzaZIBBGZhcm3gAQA!16s%2Fg%2F11qgkhj7d5?entry=tts&g_ep=EgoyMDI0MTEwNS4wIPu8ASoASAFQAw%3D%3D",kelapa,"June, July, August","[6,7,8]"
Rumah Produksi Kelapa Putri,Rumah Produksi Kelapa Putri,-3.4322375,120.3999531,"H99X+4X4, Cimpu Utara, Kec. Suli, Kabupaten Luwu, Sulawesi Selatan 91994",Cimpu Utara,Suli,Kabupaten Luwu,South Sulawesi,Sulawesi Selatan,,"https://www.google.com/maps/place/Rumah+Produksi+Kelapa+Putri/@-0.9417188,110.6777092,6z/data=!4m7!3m6!1s0x2d96bb002327dc91:0x4f02a0e568572822!8m2!3d-3.4322251!4d120.3999682!15sChRmYXJtIGtlbGFwYSBzdWxhd2VzaZIBBGZhcm3gAQA!16s%2Fg%2F11y4q7f4n6?entry=tts&g_ep=EgoyMDI0MTEwNS4wIPu8ASoASAFQAw%3D%3D",kelapa,"June, July, August","[6,7,8]"
Kecambah/Bibit kelapa sawit,Kecambah%2FBibit kelapa sawit,-2.0894176,119.5339711,"Unnamed Road, Batu Parigi, Kec. Tobadak, Kabupaten Mamuju Tengah, Sulawesi Barat 91563",Batu Parigi,Tobadak,Kabupaten Mamuju Tengah,West Sulawesi,Sulawesi Barat,0823-1457-4463,"https://www.google.com/maps/place/Kecambah%2FBibit+kelapa+sawit/@-0.9417188,110.6777092,6z/data=!4m7!3m6!1s0x2d8d838fd45f00bf:0x129dbce9d6b6dceb!8m2!3d-2.073284!4d119.4216296!15sChRmYXJtIGtlbGFwYSBzdWxhd2VzaZIBDXBsYW50X251cnNlcnngAQA!16s%2Fg%2F11r9vw7xp1?entry=tts&g_ep=EgoyMDI0MTEwNS4wIPu8ASoASAFQAw%3D%3D",kelapa,"June, July, August","[6,7,8]"
SUMBER KELAPA,SUMBER KELAPA,-5.1734051,119.4536378,"Jl. Aroeppala No.23, Kassi-Kassi, Kec. Rappocini, Kota Makassar, Sulawesi Selatan 90222",,Rappocini,Kota Makassar,South Sulawesi,Sulawesi Selatan,,"https://www.google.com/maps/place/SUMBER+KELAPA/@-0.9417188,110.6777092,6z/data=!4m7!3m6!1s0x2dbee30d6df09c81:0x63aaf86491fdd93b!8m2!3d-5.1721144!4d119.4523262!15sChRmYXJtIGtlbGFwYSBzdWxhd2VzaVoWIhRmYXJtIGtlbGFwYSBzdWxhd2VzaZIBBGZhcm2aASNDaFpEU1VoTk1HOW5TMFZKUTBGblNVTnRPRFEzU2xCUkVBReABAA!16s%2Fg%2F11ptycjv66?entry=tts&g_ep=EgoyMDI0MTEwNS4wIPu8ASoASAFQAw%3D%3D",kelapa,"June, July, August","[6,7,8]"
Raffi Kebun Kelapa,Raffi Kebun Kelapa,-4.2681875,122.3096875,"P8J5+PV, Baito, Kec. Baito, Kabupaten Konawe Selatan, Sulawesi Tenggara 93883",Baito,Baito,Kabupaten Konawe Selatan,Southeast Sulawesi,Sulawesi Tenggara,,"https://www.google.com/maps/place/Raffi+Kebun+Kelapa/@-0.9417188,110.6777092,6z/data=!4m7!3m6!1s0x2d987f0e1ef75fcf:0xa8caa2101c25f620!8m2!3d-4.2681428!4d122.309637!15sChRmYXJtIGtlbGFwYSBzdWxhd2VzaZIBB29yY2hhcmTgAQA!16s%2Fg%2F11pty74w5p?entry=tts&g_ep=EgoyMDI0MTEwNS4wIPu8ASoASAFQAw%3D%3D",kelapa,"June, July, August","[6,7,8]"
AGEN KELAPA TUA,AGEN KELAPA TUA,-5.5329375,119.9432031,"FW8V+R7G, Bonto Rita, Kec. Bissappu, Kabupaten Bantaeng, Sulawesi Selatan",Bonto Rita,Bissappu,Kabupaten Bantaeng,South Sulawesi,Sulawesi Selatan,0877-7753-8755,"https://www.google.com/maps/place/AGEN+KELAPA+TUA/@-0.9417188,110.6777092,6z/data=!4m7!3m6!1s0x2dbeb32fd5ff29a7:0x387eaa0c67da1942!8m2!3d-5.5329379!4d119.9431961!15sChRmYXJtIGtlbGFwYSBzdWxhd2VzaZIBBGZhcm3gAQA!16s%2Fg%2F11sv11yfnd?entry=tts&g_ep=EgoyMDI0MTEwNS4wIPu8ASoASAFQAw%3D%3D",kelapa,"June, July, August","[6,7,8]"
Kebun Kelapa Gilingo,Kebun Kelapa Gilingo,0.9860354,122.2171673,"2598+6V7, Dusun, Durian, Tengah, Kec. Tolinggula, Kabupaten Buol, Sulawesi Tengah",Durian,Tolinggula,Kabupaten Buol,Central Sulawesi,Sulawesi Tengah,,"https://www.google.com/maps/place/Kebun+Kelapa+Gilingo/@-0.9417188,110.6777092,6z/data=!4m7!3m6!1s0x32798900256f6957:0xd25c6d7d3ba4511b!8m2!3d1.0180305!4d122.1664687!15sChRmYXJtIGtlbGFwYSBzdWxhd2VzaZIBCXRyZWVfZmFybeABAA!16s%2Fg%2F11vwvmx27b?entry=tts&g_ep=EgoyMDI0MTEwNS4wIPu8ASoASAFQAw%3D%3D",kelapa,"June, July, August","[6,7,8]"
Tunas kelapa,Tunas kelapa,-2.0778625,119.2753281,"W7CG+V44, Dusun Bayor, Topoyo, Kec. Topoyo, Kabupaten Mamuju Tengah, Sulawesi Barat",Bayor,Topoyo,Kabupaten Mamuju Tengah,West Sulawesi,Sulawesi Barat,,"https://www.google.com/maps/place/Tunas+kelapa/@-0.9417188,110.6777092,6z/data=!4m7!3m6!1s0x2d8d7d00395a0381:0x311d014f7149cb7b!8m2!3d-2.077867!4d119.275339!15sChRmYXJtIGtlbGFwYSBzdWxhd2VzaVoWIhRmYXJtIGtlbGFwYSBzdWxhd2VzaZIBBGZhcm2aASNDaFpEU1VoTk1HOW5TMFZKUTBGblNVUkVhMDlETUVOM0VBReABAA!16s%2Fg%2F11y3ss02qz?entry=tts&g_ep=EgoyMDI0MTEwNS4wIPu8ASoASAFQAw%3D%3D",kelapa,"June, July, August","[6,7,8]"
Tamaona Kelapa Pandan Wangi,Tamaona Kelapa Pandan Wangi,-5.5034125,119.4489219,"FCWX+JHM, Tamaona Desa, Lengkese, Kec.Marbo, Kabupaten Takalar, Sulawesi Selatan",,Marbo,Kabupaten Takalar,South Sulawesi,Sulawesi Selatan,0859-0826-8537,"https://www.google.com/maps/place/Tamaona+Kelapa+Pandan+Wangi/@-0.9417188,110.6777092,6z/data=!4m7!3m6!1s0x2dbed76bf0d09593:0xf6df858a09edf4c3!8m2!3d-5.5034222!4d119.4489276!15sChRmYXJtIGtlbGFwYSBzdWxhd2VzaVoWIhRmYXJtIGtlbGFwYSBzdWxhd2VzaZIBBGZhcm2aASNDaFpEU1VoTk1HOW5TMFZKUTBGblNVTldYemRYU1VSQkVBReABAA!16s%2Fg%2F11jzdd8d4k?entry=tts&g_ep=EgoyMDI0MTEwNS4wIPu8ASoASAFQAw%3D%3D",kelapa,"June, July, August","[6,7,8]"
penyedia bibit kelapa hibrida,penyedia bibit kelapa hibrida,-1.4916086,122.254045,"Uwelolu, Kec. Toili Bar., Kabupaten Banggai, Sulawesi Tengah 94763",Uwelolu,Toili Barat,Kabupaten Banggai,Central Sulawesi,Sulawesi Tengah,0852-4104-1975,"https://www.google.com/maps/place/penyedia+bibit+kelapa+hibrida/@-0.9417188,110.6777092,6z/data=!4m7!3m6!1s0x2d85a9612ce3d68f:0x86c2082d865cb225!8m2!3d-1.4914941!4d122.2539959!15sChRmYXJtIGtlbGFwYSBzdWxhd2VzaVoWIhRmYXJtIGtlbGFwYSBzdWxhd2VzaZIBBGZhcm2aASNDaFpEU1VoTk1HOW5TMFZKUTBGblNVUkVaMDR5UlZKUkVBReABAA!16s%2Fg%2F11shk1m5h9?entry=tts&g_ep=EgoyMDI0MTEwNS4wIPu8ASoASAFQAw%3D%3D",kelapa,"June, July, August","[6,7,8]"
Usaha Parut Kelapa,Usaha Parut Kelapa,-3.4855099,119.1350164,"G47M+CMF, Jl. Poros Majene - Mamuju, Kenje, Kec. Campalagian, Kabupaten Polewali Mandar, Sulawesi Barat 91353",,Campalagian,Kabupaten Polewali Mandar,West Sulawesi,Sulawesi Barat,,"https://www.google.com/maps/place/Usaha+Parut+Kelapa/@-0.9417188,110.6777092,6z/data=!4m7!3m6!1s0x2d949520f64e40df:0x471908fa8d7a5da7!8m2!3d-3.4864465!4d119.1341835!15sChRmYXJtIGtlbGFwYSBzdWxhd2VzaZIBBGZhcm3gAQA!16s%2Fg%2F11n_s398zg?entry=tts&g_ep=EgoyMDI0MTEwNS4wIPu8ASoASAFQAw%3D%3D",kelapa,"June, July, August","[6,7,8]"
Pembakaran Batok kelapa Bone,Pembakaran Batok kelapa Bone,-4.3931312,120.1185102,"Mancenge, Tacipong, Kec. Amali, Kabupaten Bone, Sulawesi Selatan","Mancenge, Tacipong",Amali,Kabupaten Bone,South Sulawesi,Sulawesi Selatan,0817-861-990,"https://www.google.com/maps/place/Pembakaran+Batok+kelapa+Bone/@-0.9417188,110.6777092,6z/data=!4m7!3m6!1s0x2dbe01c8e32f2481:0xdfcdf1ebf0c3f26c!8m2!3d-4.3872466!4d120.1117904!15sChRmYXJtIGtlbGFwYSBzdWxhd2VzaVoWIhRmYXJtIGtlbGFwYSBzdWxhd2VzaZIBBGZhcm3gAQA!16s%2Fg%2F11y6rvg9lm?entry=tts&g_ep=EgoyMDI0MTEwNS4wIPu8ASoASAFQAw%3D%3D",kelapa,"June, July, August","[6,7,8]"
PT. EMMANUEL KENVANES SEJAHTERA ( Perkebunan Cengkih & Kelapa),PT. EMMANUEL KENVANES SEJAHTERA ( Perkebunan Cengkih %26 Kelapa),1.0778125,124.8824375,"3VHJ+4X, Atep, Kec. Langowan Sel., Kabupaten Minahasa, Sulawesi Utara",Atep,Langowan Selatan,Kabupaten Minahasa,North Sulawesi,Sulawesi Utara,,"https://www.google.com/maps/place/PT.+EMMANUEL+KENVANES+SEJAHTERA+(+Perkebunan+Cengkih+%26+Kelapa)/@1.077819,115.6538724,6z/data=!4m7!3m6!1s0x3287370032e31ac7:0x77ebf49d50fc3a1f!8m2!3d1.077819!4d124.882388!15sChRmYXJtIGtlbGFwYSBzdWxhd2VzaZIBCXRyZWVfZmFybeABAA!16s%2Fg%2F11w3kyvkxr?entry=tts&g_ep=EgoyMDI0MTEwNS4wIPu8ASoASAFQAw%3D%3D",kelapa,"June, July, August","[6,7,8]"
Pengembang kelapa tua,Pengembang kelapa tua,-5.1440887,119.4524952,"VF42+9XH, Jl. Racing Centre, Karampuang, Kec. Panakkukang, Kota Makassar, Sulawesi Selatan 90231","Jalan Racing Centre, Karampuang",Panakkukang,Kota Makassar,South Sulawesi,Sulawesi Selatan,0853-9956-6147,"https://www.google.com/maps/place/Pengembang+kelapa+tua/@1.077819,115.6538724,6z/data=!4m7!3m6!1s0x2dbee38b3787c3bd:0xf48d2f450d084252!8m2!3d-5.1440675!4d119.4524825!15sChRmYXJtIGtlbGFwYSBzdWxhd2VzaZIBC2Zhcm1fc2Nob29s4AEA!16s%2Fg%2F11h2cdpkss?entry=tts&g_ep=EgoyMDI0MTEwNS4wIPu8ASoASAFQAw%3D%3D",kelapa,"June, July, August","[6,7,8]"
Pusat Pengolahan Gula Merah Kelapa Pak Sumarlin,Pusat Pengolahan Gula Merah Kelapa Pak Sumarlin,-2.6611125,120.4523906,"8FQ2+HX2, Unnamed Road, Banyuwangi, Kec. Sukamaju, Kabupaten Luwu Utara, Sulawesi Selatan 92963",Banyuwangi,Sukamaju,Kabupaten Luwu Utara,South Sulawesi,Sulawesi Selatan,,"https://www.google.com/maps/place/Pusat+Pengolahan+Gula+Merah+Kelapa+Pak+Sumarlin/@-5.1440675,110.2239669,6z/data=!4m7!3m6!1s0x2d919f57dcdf48a9:0xa552532552fcff6a!8m2!3d-2.661105!4d120.452395!15sChRmYXJtIGtlbGFwYSBzdWxhd2VzaVoWIhRmYXJtIGtlbGFwYSBzdWxhd2VzaZIBBGZhcm2aASNDaFpEU1VoTk1HOW5TMFZKUTBGblNVTlhkblpFYTJGQkVBReABAA!16s%2Fg%2F11q_7lwlyb?entry=tts&g_ep=EgoyMDI0MTEwNS4wIPu8ASoASAFQAw%3D%3D",kelapa,"June, July, August","[6,7,8]"
"KEBUN MUTA""ALLI MAMBUHU",KEBUN MUTA%22ALLI MAMBUHU,-0.8884375,123.2051875,"4664+J3, Lomba, Kec. Lamala, Kabupaten Banggai, Sulawesi Tengah",Lomba,Lamala,Kabupaten Banggai,Central Sulawesi,Sulawesi Tengah,,"https://www.google.com/maps/place/KEBUN+MUTA%22ALLI+MAMBUHU/@-5.1440675,110.2239669,6z/data=!4m7!3m6!1s0x2d815169f54109a7:0xf7ffedd5ba04801c!8m2!3d-0.8884878!4d123.205131!15sChRmYXJtIGtlbGFwYSBzdWxhd2VzaVoWIhRmYXJtIGtlbGFwYSBzdWxhd2VzaZIBCXRyZWVfZmFybZoBI0NoWkRTVWhOTUc5blMwVkpRMEZuU1VOQ2NtTkxUV0pSRUFF4AEA!16s%2Fg%2F11sds4jlt3?entry=tts&g_ep=EgoyMDI0MTEwNS4wIPu8ASoASAFQAw%3D%3D",kelapa,"June, July, August","[6,7,8]"
Jual beli kelapa,Jual beli kelapa,-2.0770375,119.2756406,"W7FG+57J, Topoyo, Kec. Topoyo, Kabupaten Mamuju Tengah, Sulawesi Barat 91563",Topoyo,Topoyo,Kabupaten Mamuju Tengah,West Sulawesi,Sulawesi Barat,,"https://www.google.com/maps/place/Jual+beli+kelapa/@-2.0770469,110.0471209,6z/data=!4m7!3m6!1s0x2d8d7b0022e4dc59:0xcc188a6327703e13!8m2!3d-2.0770469!4d119.2756365!15sChRmYXJtIGtlbGFwYSBzdWxhd2VzaZIBBGZhcm3gAQA!16s%2Fg%2F11vwq73ln2?entry=tts&g_ep=EgoyMDI0MTEwNS4wIPu8ASoASAFQAw%3D%3D",kelapa,"June, July, August","[6,7,8]"
Bulinge (Arang Batok Kelapa),Bulinge (Arang Batok Kelapa),0.449077,121.1224306,"Desa pande, Kec. Moutong, Kabupaten Parigi Moutong, Sulawesi Tengah",Desa Pande,Moutong,Kabupaten Parigi Moutong,Central Sulawesi,Sulawesi Tengah,,"https://www.google.com/maps/place/Bulinge+(Arang+Batok+Kelapa)/@-2.0770469,110.0471209,6z/data=!4m7!3m6!1s0x3277a7122479bc6b:0x3903aa5144075448!8m2!3d0.4535504!4d121.1194456!15sChRmYXJtIGtlbGFwYSBzdWxhd2VzaZIBBGZhcm3gAQA!16s%2Fg%2F11kpqwcql8?entry=tts&g_ep=EgoyMDI0MTEwNS4wIPu8ASoASAFQAw%3D%3D",kelapa,"June, July, August","[6,7,8]"
Kebun kelapa di tanah Kaili,Kebun kelapa di tanah Kaili,-0.7466375,120.0722969,"733C+8WV, Pangi, Kec. Parigi Utara, Kabupaten Parigi Moutong, Sulawesi Tengah",Pangi,Parigi Utara,Kabupaten Parigi Moutong,Central Sulawesi,Sulawesi Tengah,,"https://www.google.com/maps/place/Kebun+kelapa+di+tanah+Kaili/@-2.0770469,110.0471209,6z/data=!4m7!3m6!1s0x2d8bdf004b75f6a3:0x57a9d779e9440a46!8m2!3d-0.7466303!4d120.0723009!15sChRmYXJtIGtlbGFwYSBzdWxhd2VzaZIBBGZhcm3gAQA!16s%2Fg%2F11y3yl9jxd?entry=tts&g_ep=EgoyMDI0MTEwNS4wIPu8ASoASAFQAw%3D%3D",kelapa,"June, July, August","[6,7,8]"
Penjualan Buah Kelapa dan Turunannya,Penjualan Buah Kelapa dan Turunannya,-1.1502932,119.883658,"Jl. Poros Palu Bangga, Balongga, Kec. Dolo Sel., Kabupaten Sigi, Sulawesi Tengah 94371",Balongga,Dolo Selatan,Kabupaten Sigi,Central Sulawesi,Sulawesi Tengah,0822-7108-7765,"https://www.google.com/maps/place/Penjualan+Buah+Kelapa+dan+Turunannya/@-2.0770469,110.0471209,6z/data=!4m7!3m6!1s0x2d8c0db631c148e9:0x4c376a9c6606adbd!8m2!3d-1.1344519!4d119.8796481!15sChRmYXJtIGtlbGFwYSBzdWxhd2VzaZIBBGZhcm3gAQA!16s%2Fg%2F11kb3t69cj?entry=tts&g_ep=EgoyMDI0MTEwNS4wIPu8ASoASAFQAw%3D%3D",kelapa,"June, July, August","[6,7,8]"
perkebunan kelapa sawit sakha,perkebunan kelapa sawit sakha,-2.4973375,120.9259219,"GW3G+397, Balirejo, Kec. Angkona, Kabupaten Luwu Timur, Sulawesi Selatan",Balirejo,Angkona,Kabupaten Luwu Timur,South Sulawesi,Sulawesi Selatan,,"https://www.google.com/maps/place/perkebunan+kelapa+sawit+sakha/@-2.0770469,110.0471209,6z/data=!4m7!3m6!1s0x2d904d005eb58eb7:0x3eacca6f25a23991!8m2!3d-2.4973329!4d120.9259179!15sChRmYXJtIGtlbGFwYSBzdWxhd2VzaZIBCXRyZWVfZmFybeABAA!16s%2Fg%2F11w3h8x1n0?entry=tts&g_ep=EgoyMDI0MTEwNS4wIPu8ASoASAFQAw%3D%3D",kelapa,"June, July, August","[6,7,8]"
Kopra Putih dan Kelapa,Kopra Putih dan Kelapa,-0.8662875,119.9013906,"4WM2+FHJ, Jl Bahari, Talise, Kec. Mantikulore, Kota Palu, Sulawesi Tengah 94143",,Mantikulore,Kota Palu,Central Sulawesi,Sulawesi Tengah,0822-1039-0654,"https://www.google.com/maps/place/Kopra+Putih+dan+Kelapa/@-2.0770469,110.0471209,6z/data=!4m7!3m6!1s0x2d8bef8f5ef48827:0xe72601eed7fe4d3c!8m2!3d-0.8662885!4d119.901393!15sChRmYXJtIGtlbGFwYSBzdWxhd2VzaZIBBGZhcm3gAQA!16s%2Fg%2F11pvhl58x3?entry=tts&g_ep=EgoyMDI0MTEwNS4wIPu8ASoASAFQAw%3D%3D",kelapa,"June, July, August","[6,7,8]"
family Garden(Hidroponik Farm kendari),family Garden(Hidroponik Farm kendari),-4.0078268,122.5417269,"Jl. Kelapa, Anduonohu, Kec. Poasia, Kota Kendari, Sulawesi Tenggara 93231","Kelapa, Anduonohu",Poasia,Kota Kendari,Southeast Sulawesi,Sulawesi Tenggara,0812-4224-0303,"https://www.google.com/maps/place/family+Garden(Hidroponik+Farm+kendari)/@-2.0770469,110.0471209,6z/data=!4m7!3m6!1s0x2d98931768f6a5a9:0x965a0f977cfe06d2!8m2!3d-4.0049994!4d122.5422232!15sChRmYXJtIGtlbGFwYSBzdWxhd2VzaVoWIhRmYXJtIGtlbGFwYSBzdWxhd2VzaZIBD3Nob3BwaW5nX2NlbnRlcpoBI0NoWkRTVWhOTUc5blMwVkpRMEZuU1VOeGRsbEhNMGxCRUFF4AEA!16s%2Fg%2F11fd4q5x81?entry=tts&g_ep=EgoyMDI0MTEwNS4wIPu8ASoASAFQAw%3D%3D",kelapa,"June, July, August","[6,7,8]"
KELAPA MUDA / TUA (Saddai & Yendeng),KELAPA MUDA %2F TUA (Saddai %26 Yendeng),-3.7578726,119.4842215,"Pantai dewata wakka, Perumahan BTN No.41, Tadang Palie, Kec. Cempa, Kabupaten Pinrang, Sulawesi Selatan 91218",Tadang Palie,Cempa,Kabupaten Pinrang,South Sulawesi,Sulawesi Selatan,0853-8633-1763,"https://www.google.com/maps/place/KELAPA+MUDA+%2F+TUA+(Saddai+%26+Yendeng)/@-2.0770469,110.0471209,6z/data=!4m7!3m6!1s0x2d9457003612f58d:0x5fd71f5d24a49ee9!8m2!3d-3.7551924!4d119.4840897!15sChRmYXJtIGtlbGFwYSBzdWxhd2VzaZIBB29yY2hhcmTgAQA!16s%2Fg%2F11w1k7vgrd?entry=tts&g_ep=EgoyMDI0MTEwNS4wIPu8ASoASAFQAw%3D%3D",kelapa,"June, July, August","[6,7,8]"
SHIWILL. Jual Beli Tandan Buah Segar (TBS) Kelapa Sawit,SHIWILL. Jual Beli Tandan Buah Segar (TBS) Kelapa Sawit,-1.7710696,119.3772969,"Unnamed Road, Kadaila, Kec. Karossa, Kabupaten Mamuju Tengah, Sulawesi Barat 91573",,Karossa,Kabupaten Mamuju Tengah,West Sulawesi,Sulawesi Barat,0823-9506-7888,"https://www.google.com/maps/place/SHIWILL.+Jual+Beli+Tandan+Buah+Segar+(TBS)+Kelapa+Sawit/@-2.0770469,110.0471209,6z/data=!4m7!3m6!1s0x2d8d09f3b04a4ec5:0x4976d2dc573ee878!8m2!3d-1.7832704!4d119.3904139!15sChRmYXJtIGtlbGFwYSBzdWxhd2VzaVoWIhRmYXJtIGtlbGFwYSBzdWxhd2VzaZIBBGZhcm2aASNDaFpEU1VoTk1HOW5TMFZKUTBGblNVUnhhMTl5VDFCUkVBReABAA!16s%2Fg%2F11np35xkww?entry=tts&g_ep=EgoyMDI0MTEwNS4wIPu8ASoASAFQAw%3D%3D",kelapa,"June, July, August","[6,7,8]"
Kebun Kelapa Adit,Kebun Kelapa Adit,-5.3012625,123.1688281,"M5X9+FGW, Kinapani Makmur, Kec. Lasalimu Sel., Kabupaten Buton, Sulawesi Tenggara 93756",Kinapani Makmur,Lasalimu Sel,Kabupaten Buton,Southeast Sulawesi,Sulawesi Tenggara,0813-4111-2337,"https://www.google.com/maps/place/Kebun+Kelapa+Adit/@-2.0770469,110.0471209,6z/data=!4m7!3m6!1s0x2da15507fd89ed75:0x5b7b0945e5a6739f!8m2!3d-5.301274!4d123.1688226!15sChRmYXJtIGtlbGFwYSBzdWxhd2VzaZIBB29yY2hhcmTgAQA!16s%2Fg%2F11fn2yfxnq?entry=tts&g_ep=EgoyMDI0MTEwNS4wIPu8ASoASAFQAw%3D%3D",kelapa,"June, July, August","[6,7,8]"
NUSANTARA KELAPA,NUSANTARA KELAPA,-3.9651501,122.5174729,"Mandonga, Kec. Mandonga, Kota Kendari, Sulawesi Tenggara 93111",,Mandonga,Kota Kendari,Southeast Sulawesi,Sulawesi Tenggara,,"https://www.google.com/maps/place/NUSANTARA+KELAPA/@-2.0770469,110.0471209,6z/data=!4m7!3m6!1s0x2d98f339ccfb1afd:0xd0c8aff193efe2e0!8m2!3d-3.9651501!4d122.5174729!15sChRmYXJtIGtlbGFwYSBzdWxhd2VzaZIBBGZhcm3gAQA!16s%2Fg%2F11wh5fm3zw?entry=tts&g_ep=EgoyMDI0MTEwNS4wIPu8ASoASAFQAw%3D%3D",kelapa,"June, July, August","[6,7,8]"
POS JAGA KEBUN KELAPA TRI PUTRA,POS JAGA KEBUN KELAPA TRI PUTRA,-0.7970178,119.8007582,"6Q2X+W8C, Gg. Purnawirawan, Loli Oge, Kec. Banawa, Kabupaten Donggala, Sulawesi Tengah 94351","Gg. Purnawirawan, Loli Oge",Banawa,Kabupaten Donggala,Central Sulawesi,Sulawesi Tengah,,"https://www.google.com/maps/place/POS+JAGA+KEBUN+KELAPA+TRI+PUTRA/@-2.0770469,110.0471209,6z/data=!4m7!3m6!1s0x2d8beb00727223e3:0x59df9cb565d9ba59!8m2!3d-0.7980524!4d119.7986726!15sChRmYXJtIGtlbGFwYSBzdWxhd2VzaZIBCXRyZWVfZmFybeABAA!16s%2Fg%2F11vw_434m6?entry=tts&g_ep=EgoyMDI0MTEwNS4wIPu8ASoASAFQAw%3D%3D",kelapa,"June, July, August","[6,7,8]"
PENGOLAHAN KELAPA,PENGOLAHAN KELAPA,-3.9284047,121.322709,"Jl. Pelabuhan, Tonganapo, Kec. Samaturu, Kabupaten Kolaka, Sulawesi Tenggara 94521",Tonganapo,Samaturu,Kabupaten Kolaka,Southeast Sulawesi,Sulawesi Tenggara,0823-2808-7077,"https://www.google.com/maps/place/PENGOLAHAN+KELAPA/@-4.9320183,113.766404,6z/data=!4m7!3m6!1s0x2d9797f77f976161:0x515f1f446018b8c7!8m2!3d-3.9284047!4d121.322709!15sChRmYXJtIGtlbGFwYSBzdWxhd2VzaZIBBGZhcm3gAQA!16s%2Fg%2F11k9gvt16m?entry=tts&g_ep=EgoyMDI0MTEwNS4wIPu8ASoASAFQAw%3D%3D",kelapa,"June, July, August","[6,7,8]"
DEWARUCI HIDROFARM,DEWARUCI HIDROFARM,-5.2270149,119.5057633,"Jl. Kelapa No.92171, Romang Lompoa, Kec. Bontomarannu, Kabupaten Gowa, Sulawesi Selatan 92171",Romang Lompoa,Bontomarannu,Kabupaten Gowa,South Sulawesi,Sulawesi Selatan,0823-4869-7908,"https://www.google.com/maps/place/DEWARUCI+HIDROFARM/@-4.9320183,113.766404,6z/data=!4m7!3m6!1s0x2dbee183efec63fb:0x11a0715cce767b3a!8m2!3d-5.2267232!4d119.5060379!15sChRmYXJtIGtlbGFwYSBzdWxhd2VzaZIBBGZhcm3gAQA!16s%2Fg%2F11qn5gp_2h?entry=tts&g_ep=EgoyMDI0MTEwNS4wIPu8ASoASAFQAw%3D%3D",kelapa,"June, July, August","[6,7,8]"
Green farm Jual sayuran organik sayuran sehat,Green farm Jual sayuran organik sayuran sehat,-0.9505266,119.8912098,"BTN Griya Kelapa Putih, Jl. Lapatta No.18 Blok B, Kalukubula, Kec. Sigi Biromaru, Kabupaten Sigi, Sulawesi Tengah 94111","BTN Griya Kelapa Putih, Jl. Lapatta No.18 Blok B, Kalukubula",Sigi Biromaru,Kabupaten Sigi,Central Sulawesi,Sulawesi Tengah,0852-4138-7726,"https://www.google.com/maps/place/Green+farm+Jual+sayuran+organik+sayuran+sehat/@-4.9320183,113.766404,6z/data=!4m7!3m6!1s0x2d8bf18af5643371:0xa9b966cd82b73663!8m2!3d-0.9515209!4d119.8912343!15sChRmYXJtIGtlbGFwYSBzdWxhd2VzaVoWIhRmYXJtIGtlbGFwYSBzdWxhd2VzaZIBDG9yZ2FuaWNfZmFybZoBI0NoWkRTVWhOTUc5blMwVkpRMEZuU1VOWGRqUXlOMU5uRUFF4AEA!16s%2Fg%2F11sr61r_fk?entry=tts&g_ep=EgoyMDI0MTEwNS4wIPu8ASoASAFQAw%3D%3D",kelapa,"June, July, August","[6,7,8]"
PT. HNI (Hengjaya Nickel Industry),PT. HNI (Hengjaya Nickel Industry),-2.8476875,122.1642344,"5527+WMH, Labota, Kec. Bahodopi, Kabupaten Morowali, Sulawesi Tengah 94974",Labota,Bahodopi,Kabupaten Morowali,Central Sulawesi,Sulawesi Tengah,,"https://www.google.com/maps/place/PT.+HNI+(Hengjaya+Nickel+Industry)/@-0.8331567,114.0933096,6z/data=!4m7!3m6!1s0x2d9a4785f6aa876b:0xfe7ab2efd2c80c6d!8m2!3d-2.8476912!4d122.1642227!15sCg9uaWNrZWwgc3VsYXdlc2laESIPbmlja2VsIHN1bGF3ZXNpkgEObWluaW5nX2NvbXBhbnmaASNDaFpEU1VoTk1HOW5TMFZKUTBGblNVTlhNRFEyZFZKQkVBReABAA!16s%2Fg%2F11hf8p1z2g?entry=tts&g_ep=EgoyMDI0MTEwNS4wIPu8ASoASAFQAw%3D%3D",nikel,"April, May, June, July, August, September, October","[4,5,6,7,8,9,10]"
PT WALSIN NICKEL INDUSTRIAL INDONESIA,PT WALSIN NICKEL INDUSTRIAL INDONESIA,-2.8579625,122.1599219,"45R5+RX7, Labota, Kec. Bahodopi, Kabupaten Morowali, Sulawesi Tengah 94974",,Bahodopi,Kabupaten Morowali,Central Sulawesi,Sulawesi Tengah,0821-9510-8918,"https://www.google.com/maps/place/PT+WALSIN+NICKEL+INDUSTRIAL+INDONESIA/@-0.8331567,114.0933096,6z/data=!4m7!3m6!1s0x2d9a479a67e1be1d:0xf98077787d7bd5eb!8m2!3d-2.8579552!4d122.159913!15sCg9uaWNrZWwgc3VsYXdlc2mSARBjb3Jwb3JhdGVfb2ZmaWNl4AEA!16s%2Fg%2F11rs9w0j8j?entry=tts&g_ep=EgoyMDI0MTEwNS4wIPu8ASoASAFQAw%3D%3D",nikel,"April, May, June, July, August, September, October","[4,5,6,7,8,9,10]"
PT. NADESICO NICKEL INDUSTRY (NNI),PT. NADESICO NICKEL INDUSTRY (NNI),-2.0144875,121.4302031,"XCPJ+634, Bungintimbe, Kec. Petasia Timur, Kabupaten Morowali Utara, Sulawesi Tengah",Bungintimbe,Petasia Timur,Kabupaten Morowali Utara,Central Sulawesi,Sulawesi Tengah,0815-2709-3268,"https://www.google.com/maps/place/PT.+NADESICO+NICKEL+INDUSTRY+(NNI)/@-0.8331567,114.0933096,6z/data=!4m7!3m6!1s0x2d8fe595594b807f:0x679f133317a39c5e!8m2!3d-2.0144783!4d121.4302094!15sCg9uaWNrZWwgc3VsYXdlc2mSARBjb3Jwb3JhdGVfb2ZmaWNl4AEA!16s%2Fg%2F11v091byf2?entry=tts&g_ep=EgoyMDI0MTEwNS4wIPu8ASoASAFQAw%3D%3D",nikel,"April, May, June, July, August, September, October","[4,5,6,7,8,9,10]"
PT GUNBUSTER NICKEL INDUSTRY,PT GUNBUSTER NICKEL INDUSTRY,-2.0015625,121.4349219,"XCXM+9XF, Unnamed Road, Bungintimbe, Kec. Petasia Timur, Kabupaten Morowali Utara, Sulawesi Tengah 94971",Bungintimbe,Petasia Timur,Kabupaten Morowali Utara,Central Sulawesi,Sulawesi Tengah,(021) 50603688,"https://www.google.com/maps/place/PT+GUNBUSTER+NICKEL+INDUSTRY/@-0.8331567,114.0933096,6z/data=!4m7!3m6!1s0x2d8fe5cffe63d935:0x68e75d3707096eff!8m2!3d-2.0015683!4d121.4349367!15sCg9uaWNrZWwgc3VsYXdlc2mSARRjb25zdHJ1Y3Rpb25fY29tcGFueeABAA!16s%2Fg%2F11nzyl7_7n?entry=tts&g_ep=EgoyMDI0MTEwNS4wIPu8ASoASAFQAw%3D%3D",nikel,"April, May, June, July, August, September, October","[4,5,6,7,8,9,10]"
PT HUADI Nickel-Alloy INDONESIA,PT HUADI Nickel-Alloy INDONESIA,-5.5630561,120.0636349,"Papanloe, Kec. Pajukukang, Kabupaten Bantaeng, Sulawesi Selatan 92461",Papanloe,Pajukukang,Kabupaten Bantaeng,South Sulawesi,Sulawesi Selatan,,"https://www.google.com/maps/place/PT+HUADI+Nickel-Alloy+INDONESIA/@-0.8331567,114.0933096,6z/data=!4m7!3m6!1s0x2db9537d4df9e437:0xa07301a41783bce6!8m2!3d-5.5797136!4d120.0658062!15sCg9uaWNrZWwgc3VsYXdlc2laESIPbmlja2VsIHN1bGF3ZXNpkgEQY29ycG9yYXRlX29mZmljZZoBJENoZERTVWhOTUc5blMwVkpRMEZuU1VSV2NsOWxiVEJuUlJBQuABAA!16s%2Fg%2F11f6fzg3z6?entry=tts&g_ep=EgoyMDI0MTEwNS4wIPu8ASoASAFQAw%3D%3D",nikel,"April, May, June, July, August, September, October","[4,5,6,7,8,9,10]"
Smelter Nickel Matte PT. NNI ,Smelter Nickel Matte PT. NNI %E4%B8%AD%E4%BC%9F%E5%86%B0%E9%95%8D%E5%8E%82,-2.0401227,121.4570447,"Bungintimbe, Kec. Petasia, Kabupaten Morowali Utara, Sulawesi Tengah",Bungintimbe,Petasia,Kabupaten Morowali Utara,Central Sulawesi,Sulawesi Tengah,,"https://www.google.com/maps/place/Smelter+Nickel+Matte+PT.+NNI+%E4%B8%AD%E4%BC%9F%E5%86%B0%E9%95%8D%E5%8E%82/@-0.8331567,114.0933096,6z/data=!4m7!3m6!1s0x2d8fe5004741a7a7:0xb2fcfea6fb1203ad!8m2!3d-2.0138152!4d121.4180866!15sCg9uaWNrZWwgc3VsYXdlc2mSAQxtYW51ZmFjdHVyZXLgAQA!16s%2Fg%2F11vs_dbf79?entry=tts&g_ep=EgoyMDI0MTEwNS4wIPu8ASoASAFQAw%3D%3D",nikel,"April, May, June, July, August, September, October","[4,5,6,7,8,9,10]"
PT Kolaka Nickel Indonesia,PT Kolaka Nickel Indonesia,-4.2227021,121.5857178,"Jl. Poros Pomalaa-Tanggetada, Tambea, Kec. Pomalaa, Kabupaten Kolaka, Sulawesi Tenggara 93562",Tambea,Pomalaa,Kabupaten Kolaka,Southeast Sulawesi,Sulawesi Tenggara,,"https://www.google.com/maps/place/PT+Kolaka+Nickel+Indonesia/@-0.8331567,114.0933096,6z/data=!4m7!3m6!1s0x2d97f9ca11bd5f57:0x62d1b981c1de679c!8m2!3d-4.2318022!4d121.5847442!15sCg9uaWNrZWwgc3VsYXdlc2mSAQ5taW5pbmdfY29tcGFueeABAA!16s%2Fg%2F11s0z9sg5q?entry=tts&g_ep=EgoyMDI0MTEwNS4wIPu8ASoASAFQAw%3D%3D",nikel,"April, May, June, July, August, September, October","[4,5,6,7,8,9,10]"
PT.INDONESIA NIKEL INDUSTRI,PT.INDONESIA NIKEL INDUSTRI,-3.9933856,122.5349743,"Jl. Green Leaf, Anduonohu, Kec. Poasia, Kota Kendari, Sulawesi Tenggara 93231",,Poasia,Kota Kendari,Southeast Sulawesi,Sulawesi Tenggara,0811-9614-182,"https://www.google.com/maps/place/PT.INDONESIA+NIKEL+INDUSTRI/@-0.8331567,114.0933096,6z/data=!4m7!3m6!1s0x2d988d1ff55263df:0xa46ce5f74e6cd2be!8m2!3d-3.9927407!4d122.5350245!15sCg9uaWNrZWwgc3VsYXdlc2mSAQ1jb2FsX2V4cG9ydGVy4AEA!16s%2Fg%2F11n5hrg2m2?entry=tts&g_ep=EgoyMDI0MTEwNS4wIPu8ASoASAFQAw%3D%3D",nikel,"April, May, June, July, August, September, October","[4,5,6,7,8,9,10]"
PT UNITY NICKEL ALLOY INDONESIA,PT UNITY NICKEL ALLOY INDONESIA,-5.5630561,120.0636349,"Papanloe, Kec. Pajukukang, Kabupaten Bantaeng, Sulawesi Selatan",Papanloe,Pajukukang,Kabupaten Bantaeng,South Sulawesi,Sulawesi Selatan,0851-4392-0528,"https://www.google.com/maps/place/PT+UNITY+NICKEL+ALLOY+INDONESIA/@-0.8331567,114.0933096,6z/data=!4m7!3m6!1s0x2db955c41918bbaf:0xaadbda1c4019dbe6!8m2!3d-5.5660414!4d120.0682242!15sCg9uaWNrZWwgc3VsYXdlc2mSARRjb25zdHJ1Y3Rpb25fY29tcGFueeABAA!16s%2Fg%2F11jt8kmfpg?entry=tts&g_ep=EgoyMDI0MTEwNS4wIPu8ASoASAFQAw%3D%3D",nikel,"April, May, June, July, August, September, October","[4,5,6,7,8,9,10]"
PT. Oracle Nickel Industry,PT. Oracle Nickel Industry,-2.866667,122.166667,"Labota, Kec. Bahodopi, Kabupaten Morowali, Sulawesi Tengah",Labota,Bahodopi,Kabupaten Morowali,Central Sulawesi,Sulawesi Tengah,,"https://www.google.com/maps/place/PT.+Oracle+Nickel+Industry/@-0.8331567,114.0933096,6z/data=!4m7!3m6!1s0x2d9a474fec1b9bcf:0xbc580e79032fe1a3!8m2!3d-2.8610317!4d122.1557382!15sCg9uaWNrZWwgc3VsYXdlc2mSARBzdGVlbF9mYWJyaWNhdG9y4AEA!16s%2Fg%2F11tc60d0cj?entry=tts&g_ep=EgoyMDI0MTEwNS4wIPu8ASoASAFQAw%3D%3D",nikel,"April, May, June, July, August, September, October","[4,5,6,7,8,9,10]"
PT. Vale Indonesia Tbk. Sorowako,PT Vale Indonesia Tbk,-2.5682875,121.3793906,"C9JH+MQJ Main Office Plant Site, Sorowako, Kec. Nuha, Kabupaten Luwu Timur, Sulawesi Selatan 92983",,Nuha,Sorowako,South Sulawesi,Sulawesi Selatan,(021) 5249000,"https://www.google.com/maps/place/PT+Vale+Indonesia+Tbk/@-0.8331567,114.0933096,6z/data=!4m7!3m6!1s0x2d90646db2ef89ed:0xb73427e50e72cc68!8m2!3d-2.5682901!4d121.3795926!15sCg9uaWNrZWwgc3VsYXdlc2laESIPbmlja2VsIHN1bGF3ZXNpkgEObWluaW5nX2NvbXBhbnmaASRDaGREU1VoTk1HOW5TMFZKUTBGblNVUjFOVTV1YUhCQlJSQULgAQA!16s%2Fg%2F11b6_fs2gv?entry=tts&g_ep=EgoyMDI0MTEwNS4wIPu8ASoASAFQAw%3D%3D",nikel,"April, May, June, July, August, September, October","[4,5,6,7,8,9,10]"
PT SCM NIKEL,PT SCM NIKEL,-3.0773875,121.8562656,"WVF4+2GR, Lalomerui, Routa, Kabupaten Konawe, Sulawesi Tenggara",Lalomerui,Routa,Kabupaten Konawe,Southeast Sulawesi,Sulawesi Tenggara,,"https://www.google.com/maps/place/PT+SCM+NIKEL/@-0.8331567,114.0933096,6z/data=!4m7!3m6!1s0x2d9a1b586ea21b69:0xfcbcfdab1bd4c29c!8m2!3d-3.0773902!4d121.856261!15sCg9uaWNrZWwgc3VsYXdlc2mSARBjb3Jwb3JhdGVfb2ZmaWNl4AEA!16s%2Fg%2F11tp6gfbwv?entry=tts&g_ep=EgoyMDI0MTEwNS4wIPu8ASoASAFQAw%3D%3D",nikel,"April, May, June, July, August, September, October","[4,5,6,7,8,9,10]"
PT gunbuster nikel industry,PT gunbuster nikel industry,-2.0416138,121.3884671,"2C6J+W62, Gililana, Bunta, Kabupaten Morowali, Sulawesi Tengah 94971",Gililana,Bunta,Kabupaten Morowali,Central Sulawesi,Sulawesi Tengah,,"https://www.google.com/maps/place/PT+gunbuster+nikel+industry/@-0.8331567,114.0933096,6z/data=!4m7!3m6!1s0x2d8fe531761b1b05:0xa500579c192a0845!8m2!3d-1.9877289!4d121.4305209!15sCg9uaWNrZWwgc3VsYXdlc2mSARRjb25zdHJ1Y3Rpb25fY29tcGFueeABAA!16s%2Fg%2F11s2jd9nt3?entry=tts&g_ep=EgoyMDI0MTEwNS4wIPu8ASoASAFQAw%3D%3D",nikel,"April, May, June, July, August, September, October","[4,5,6,7,8,9,10]"
PT RNI (Ranger Nickel Industri),PT RNI (Ranger Nickel Industri),-2.866667,122.166667,"Labota, Kec. Bahodopi, Kabupaten Morowali, Sulawesi Tengah 94974",Labota,Bahodopi,Kabupaten Morowali,Central Sulawesi,Sulawesi Tengah,,"https://www.google.com/maps/place/PT+RNI+(Ranger+Nickel+Industri)/@-0.8331567,114.0933096,6z/data=!4m7!3m6!1s0x2d9a478fdf5dfa67:0x35c24ff6d2d33c67!8m2!3d-2.8513244!4d122.1639272!15sCg9uaWNrZWwgc3VsYXdlc2mSARRjb25zdHJ1Y3Rpb25fY29tcGFueeABAA!16s%2Fg%2F11pwjglbq8?entry=tts&g_ep=EgoyMDI0MTEwNS4wIPu8ASoASAFQAw%3D%3D",nikel,"April, May, June, July, August, September, October","[4,5,6,7,8,9,10]"
Jetty PT. HUADI NICKLE-ALLOY INDONESIA,Jetty PT. HUADI NICKLE-ALLOY INDONESIA,-5.5827468,120.0645143,"C377+47V, Jl. Poros Bantaeng - Bulukumba, Papanloe, Kec. Pajukukang, Kabupaten Bantaeng, Sulawesi Selatan 92461",Papanloe,Pajukukang,Kabupaten Bantaeng,South Sulawesi,Sulawesi Selatan,,"https://www.google.com/maps/place/Jetty+PT.+HUADI+NICKLE-ALLOY+INDONESIA/@-0.8331567,114.0933096,6z/data=!4m7!3m6!1s0x2db953443d99bbf3:0x8c5e36501aefdb5a!8m2!3d-5.5871356!4d120.0631629!15sCg9uaWNrZWwgc3VsYXdlc2mSARZwb3J0X29wZXJhdGluZ19jb21wYW554AEA!16s%2Fg%2F11jx29gwqd?entry=tts&g_ep=EgoyMDI0MTEwNS4wIPu8ASoASAFQAw%3D%3D",nikel,"April, May, June, July, August, September, October","[4,5,6,7,8,9,10]"
PT WANXIANG NICKEL INDONESIA,PT WANXIANG NICKEL INDONESIA,-2.6794968,122.0077611,"Jl.trans Sulawesi, Bahomotefe, Bungku Timur, Morowali Regency, Central Sulawesi 94973",Bahomotefe,Bungku Timur,Kabupaten Morowali,Central Sulawesi,Sulawesi Tengah,,"https://www.google.com/maps/place/PT+WANXIANG+NICKEL+INDONESIA/@-0.8331567,114.0933096,6z/data=!4m7!3m6!1s0x2d9a5d97a9787de5:0x14bde8dabf27cdc3!8m2!3d-2.7344447!4d122.0317481!15sCg9uaWNrZWwgc3VsYXdlc2mSAQxtYW51ZmFjdHVyZXLgAQA!16s%2Fg%2F11lm45qwgt?entry=tts&g_ep=EgoyMDI0MTEwNS4wIPu8ASoASAFQAw%3D%3D",nikel,"April, May, June, July, August, September, October","[4,5,6,7,8,9,10]"
PT.GUNBUSTERNIKELINDUSTRI,PT.GUNBUSTERNIKELINDUSTRI,-1.9951625,121.4308281,"2C3J+W8P, Gililana, Kec. Petasia, Kabupaten Morowali Utara, Sulawesi Tengah 94971",Gililana,Petasia,Kabupaten Morowali Utara,Central Sulawesi,Sulawesi Tengah,,"https://www.google.com/maps/place/PT.GUNBUSTERNIKELINDUSTRI/@-0.8331567,114.0933096,6z/data=!4m7!3m6!1s0x2d8fe597b163ec71:0xca0f5e4027a1c468!8m2!3d-1.9951625!4d121.4308281!15sCg9uaWNrZWwgc3VsYXdlc2laESIPbmlja2VsIHN1bGF3ZXNpkgEQY29ycG9yYXRlX29mZmljZZoBI0NoWkRTVWhOTUc5blMwVkpRMEZuU1VSMWMyUXpSa0ZuRUFF4AEA!16s%2Fg%2F11kzkbvbjs?entry=tts&g_ep=EgoyMDI0MTEwNS4wIPu8ASoASAFQAw%3D%3D",nikel,"April, May, June, July, August, September, October","[4,5,6,7,8,9,10]"
NICKEL HILL EAST POND,NICKEL HILL EAST POND,-2.6089375,121.3725625,"99RF+C2, Asuli, Kec. Towuti, Kabupaten Luwu Timur, Sulawesi Selatan",Asuli,Towuti,Kabupaten Luwu Timur,South Sulawesi,Sulawesi Selatan,,"https://www.google.com/maps/place/NICKEL+HILL+EAST+POND/@-0.8331567,114.0933096,6z/data=!4m7!3m6!1s0x2d90633aa91955ff:0x1b33b77a860fe334!8m2!3d-2.6089443!4d121.3726167!15sCg9uaWNrZWwgc3VsYXdlc2mSARRjb25zdHJ1Y3Rpb25fY29tcGFueeABAA!16s%2Fg%2F11l2tk0x8b?entry=tts&g_ep=EgoyMDI0MTEwNS4wIPu8ASoASAFQAw%3D%3D",nikel,"April, May, June, July, August, September, October","[4,5,6,7,8,9,10]"
PT. Aquila Cobalt Nickel,PT. Aquila Cobalt Nickel,-2.67883,121.985497,"Kolono, Kec. Bungku Tengah, Kabupaten Morowali, Sulawesi Tengah 94973",Kolono,Bungku Tengah,Kabupaten Morowali,Central Sulawesi,Sulawesi Tengah,0813-1831-3342,"https://www.google.com/maps/place/PT.+Aquila+Cobalt+Nickel/@-0.8331567,114.0933096,6z/data=!4m7!3m6!1s0x2d9a67bc9d7c83f7:0xf5c479a3dc51170c!8m2!3d-2.7006915!4d121.9798299!15sCg9uaWNrZWwgc3VsYXdlc2mSAQ5taW5pbmdfY29tcGFueeABAA!16s%2Fg%2F11w3g7z92j?entry=tts&g_ep=EgoyMDI0MTEwNS4wIPu8ASoASAFQAw%3D%3D",nikel,"April, May, June, July, August, September, October","[4,5,6,7,8,9,10]"
PT.Mining area NICKEL ID,PT.Mining area NICKEL ID,-2.9536875,121.7724375,"2QWC+GX, Lalomerui, Routa, Kabupaten Konawe, Sulawesi Tenggara",Lalomerui,Routa,Kabupaten Konawe,Southeast Sulawesi,Sulawesi Tenggara,,"https://www.google.com/maps/place/PT.Mining+area+NICKEL+ID/@-0.8331567,114.0933096,6z/data=!4m7!3m6!1s0x2d9a0d3e90804639:0x45b5bf46f4dd8db6!8m2!3d-2.9536635!4d121.7724785!15sCg9uaWNrZWwgc3VsYXdlc2mSAQ5taW5pbmdfY29tcGFueeABAA!16s%2Fg%2F11l1d0z1s0?entry=tts&g_ep=EgoyMDI0MTEwNS4wIPu8ASoASAFQAw%3D%3D",nikel,"April, May, June, July, August, September, October","[4,5,6,7,8,9,10]"
Jettyy Merpati (PT Gunbuster Nickel Industry),Jettyy Merpati (PT Gunbuster Nickel Industry),-1.9768375,121.4375156,"2CFQ+726, Kabupaten Morowali, Sulawesi Tengah 94971",,Petasia Timur,Kabupaten Morowali,Central Sulawesi,Sulawesi Tengah,,"https://www.google.com/maps/place/Jettyy+Merpati+(PT+Gunbuster+Nickel+Industry)/@-0.8331567,114.0933096,6z/data=!4m7!3m6!1s0x2d8fe5fefad0e831:0x4465303585f3565!8m2!3d-1.9768296!4d121.4375285!15sCg9uaWNrZWwgc3VsYXdlc2laESIPbmlja2VsIHN1bGF3ZXNpkgEWcG9ydF9vcGVyYXRpbmdfY29tcGFueZoBI0NoWkRTVWhOTUc5blMwVkpRMEZuU1VSTGNVMURORmQzRUFF4AEA!16s%2Fg%2F11fwdqk3v2?entry=tts&g_ep=EgoyMDI0MTEwNS4wIPu8ASoASAFQAw%3D%3D",nikel,"April, May, June, July, August, September, October","[4,5,6,7,8,9,10]"
PT. Virtue Dragon Nickel,PT. Virtue Dragon Nickel,-3.9022375,122.4070781,"3CX4+4R4, Sampara/Morosi, Kec. Bondoala, Kabupaten Konawe, Sulawesi Tenggara 93354",Sampara/Morosi,Bondoala,Kabupaten Konawe,Southeast Sulawesi,Sulawesi Tenggara,,"https://www.google.com/maps/place/PT.+Virtue+Dragon+Nickel/@-0.8331567,114.0933096,6z/data=!4m7!3m6!1s0x2d98f7d96128bec5:0xafb08aa2d5997f59!8m2!3d-3.9022495!4d122.4070834!15sCg9uaWNrZWwgc3VsYXdlc2mSARBjb3Jwb3JhdGVfb2ZmaWNl4AEA!16s%2Fg%2F11frg3ps09?entry=tts&g_ep=EgoyMDI0MTEwNS4wIPu8ASoASAFQAw%3D%3D",nikel,"April, May, June, July, August, September, October","[4,5,6,7,8,9,10]"
PT.Nadesico Nickel Industry,PT.Nadesico Nickel Industry,-2.0174375,121.4056875,"XCM4+27, Bungintimbe, Kec. Petasia Timur, Kabupaten Morowali, Sulawesi Tengah",Bungintimbe,Petasia Timur,Kabupaten Morowali,Central Sulawesi,Sulawesi Tengah,0821-2911-4343,"https://www.google.com/maps/place/PT.Nadesico+Nickel+Industry/@-0.8331567,114.0933096,6z/data=!4m7!3m6!1s0x2d8fe5a14de739d5:0x60500c5fd36c1e16!8m2!3d-2.0174347!4d121.4057108!15sCg9uaWNrZWwgc3VsYXdlc2mSARRjb25zdHJ1Y3Rpb25fY29tcGFueeABAA!16s%2Fg%2F11kq28mc16?entry=tts&g_ep=EgoyMDI0MTEwNS4wIPu8ASoASAFQAw%3D%3D",nikel,"April, May, June, July, August, September, October","[4,5,6,7,8,9,10]"
HSE Center PT. Gunbuster Nickel Industry,HSE Center PT. Gunbuster Nickel Industry,-2.0416125,121.3884531,"X95Q+994, Bunta, Kec. Petasia, Kabupaten Morowali Utara, Sulawesi Tengah 94971",,Petasia,Kabupaten Morowali Utara,Central Sulawesi,Sulawesi Tengah,,"https://www.google.com/maps/place/HSE+Center+PT.+Gunbuster+Nickel+Industry/@-0.8331567,114.0933096,6z/data=!4m7!3m6!1s0x2d8fe30064be4f29:0xf256c21812ab7728!8m2!3d-2.0416138!4d121.3884671!15sCg9uaWNrZWwgc3VsYXdlc2mSARthc3NvY2lhdGlvbl9vcl9vcmdhbml6YXRpb27gAQA!16s%2Fg%2F11vypgdr6z?entry=tts&g_ep=EgoyMDI0MTEwNS4wIPu8ASoASAFQAw%3D%3D",nikel,"April, May, June, July, August, September, October","[4,5,6,7,8,9,10]"
PT. Apollo Nickel Indonesia,PT. Apollo Nickel Indonesia,-3.3837125,122.3673594,"J988+GW9, Waturambaha, Kec. Lasolo, Kabupaten Konawe Utara, Sulawesi Tenggara 93352",Waturambaha,Lasolo,Kabupaten Konawe Utara,Southeast Sulawesi,Sulawesi Tenggara,,"https://www.google.com/maps/place/PT.+Apollo+Nickel+Indonesia/@-0.8331567,114.0933096,6z/data=!4m7!3m6!1s0x2d997509f9d2b267:0x4eea81beb6e8e49b!8m2!3d-3.3837024!4d122.3673518!15sCg9uaWNrZWwgc3VsYXdlc2mSARBjb3Jwb3JhdGVfb2ZmaWNl4AEA!16s%2Fg%2F11l22s_j2p?entry=tts&g_ep=EgoyMDI0MTEwNS4wIPu8ASoASAFQAw%3D%3D",nikel,"April, May, June, July, August, September, October","[4,5,6,7,8,9,10]"
PT. GEMA KREASI PERDANA,PT. GEMA KREASI PERDANA,-4.228047,123.1182806,"Sukarela Jaya, Kec. Wawonii Tenggara, Kabupaten Konawe, Sulawesi Tenggara",Sukarela Jaya,Wawonii Tenggara,Kabupaten Konawe,Southeast Sulawesi,Sulawesi Tenggara,,"https://www.google.com/maps/place/PT.+GEMA+KREASI+PERDANA/@-0.8331567,114.0933096,6z/data=!4m7!3m6!1s0x2da1ff965add0e2f:0x8cc837b65bc87566!8m2!3d-4.2545676!4d123.1013399!15sCg9uaWNrZWwgc3VsYXdlc2mSAQ5taW5pbmdfY29tcGFueeABAA!16s%2Fg%2F11fj1ymt_2?entry=tts&g_ep=EgoyMDI0MTEwNS4wIPu8ASoASAFQAw%3D%3D",nikel,"April, May, June, July, August, September, October","[4,5,6,7,8,9,10]"
